RCDTS,DistrictName,Superintendent,Telephone,Website,City,CountyName,GradesServed,Mailing Address,Zip
010010010,Payson CUSD 1,Dr. Donna Veile,217-656-3323,http://www.cusd1.org,Payson,Adams,P-12,406 W State St,62360 1041
010010020,Liberty CUSD 2,Dr. Kelle Bunch,217-645-3433,http://www.libertyschool.net,Liberty,Adams,P-12,505 N Park St,62347 1107
010010030,Central CUSD 3,Mrs. Erica Smith,217-593-7116,http://www.cusd3.com,Camp Point,Adams,P-12,2110 Highway 94 N,62320 2516
010010040,CUSD 4,Mr. Scott Riddle,217-936-2111,http://www.cusd4.com,Mendon,Adams,P-12,PO Box 200,62351 0200
010011720,Quincy SD 172,Mr. Lanty McGuire,217-223-8700,http://www.qps.org,Quincy,Adams,P-12,1416 Maine St,62301 4261
010050010,Brown County CUSD 1,Dr. Lan Eberle,217-773-7401,http://www.bchornets.com,Mt Sterling,Brown,P-12,502 E Main St,62353 1377
010090150,Beardstown CUSD 15,Mr. Brent ODaniell,217-323-3099,http://beardstown.com,Beardstown,Cass,P-12,500 E 15th St,62618 2052
010090640,Virginia CUSD 64,Mrs. Mekelle Neathery,217-452-3085,http://www.virginia64.com,Virginia,Cass,P-12,651 S Morgan St,62691 1547
010092620,A-C Central CUSD 262,Dr. Amy Zahm,217-476-8112,http://www.a-ccentral.com,Ashland,Cass,P-12,PO Box 260,62612 0260
010690010,Franklin CUSD 1,Mr. Jeff Waggener,217-675-2395,http://www.franklinhigh.com,Franklin,Morgan,P-12,110 State,62638 4933
010690060,Waverly CUSD 6,Mr. Rob Pipher,217-435-8121,http://www.wsd6.org,Waverly,Morgan,P-12,201 N Miller St,62692 1041
010690110,Meredosia-Chambersburg CUSD 11,Mr. Thad W Walker,217-584-1744,http://www.mcsd11.net,Meredosia,Morgan,P-12,830 Main St,62665 7357
010690270,Triopia CUSD 27,Mr. Adam Dean,217-457-2283,http://www.triopiacusd27.org/,Concord,Morgan,P-12,2204 Concord Arenzville Rd,62631 5017
010691170,Jacksonville SD 117,Mr. Steve Ptacek,217-243-9411,http://www.jsd117.org,Jacksonville,Morgan,P-12,211 W State St,62650 1997
010750030,Pleasant Hill CUSD 3,Mrs. Kylee Orr,217-734-2311,http://www.phwolves.com,Pleasant Hill,Pike,P-12,PO Box 277,62366 0277
010750040,Griggsville-Perry CUSD 4,William Capps,217-833-2352,http://www.griggsvilleperry.org,Griggsville,Pike,P-12,PO Box 439,62340 0439
010750100,Pikeland CUSD 10,Dr. Russ Tepen,217-285-2147,http://www.pikeland.org,Pittsfield,Pike,P-12,512 S Madison St,62363 1960
010750120,Western CUSD 12,Mr. Darin Powell,217-335-2323,http://westerncusd12.org,Barry,Pike,P-12,401 McDonough St,62312 1031
010860010,Winchester CUSD 1,Mr. Jeff Abell,217-742-3175,http://www.winchesterschools.net,Winchester,Scott,P-12,149 S Elm St,62694 1246
010860020,Scott-Morgan CUSD 2,Mrs. Brandi Pennock,217-754-3351,http://www.bluffs-school.com,Bluffs,Scott,P-12,PO Box 230,62621 0230
030030010,Mulberry Grove CUSD 1,Mrs. Casie Bowman,618-326-8812,http://www.mgschools.com,Mulberry Grove,Bond,P-12,801 W Wall St,62262 1049
030030020,Bond County CUSD 2,Wes Olson,618-664-0170,,Greenville,Bond,P-12,1008 N Hena St,62246 1378
030110010,Morrisonville CUSD 1,Mr. Patrick Murphy,217-707-6882,http://www.mohawks.net,Morrisonville,Christian,P-12,PO Box 13,62546 0013
030110030,Taylorville CUSD 3,Mrs. Brandi Bruley,217-824-4951,https://www.tcusd3.org/,Taylorville,Christian,P-12,1100 Sportsman Dr,62568 1239
030110040,Edinburg CUSD 4,Mrs. Ashley Francis,217-623-5603,http://ecusd4.com,Edinburg,Christian,P-12,100 E Martin St,62531 9713
030110080,Pana CUSD 8,Mrs. Jessica Miller,217-562-1500,http://www.panaschools.com,Pana,Christian,P-12,PO Box 377,62557 0377
030110140,South Fork SD 14,Mr. Chris E Clark,217-237-4333,http://www.southforkschools.com,Kincaid,Christian,P-12,PO Box 20,62540 0020
030250100,Altamont CUSD 10,Ms. Casey Adam,618-483-6195,https://www.altamontschools.org/,Altamont,Effingham,P-12,7 S Ewing St,62411 1265
030250200,Beecher City CUSD 20,Mr. Philip E Lark,618-487-5100,http://www.beechercity.org,Beecher City,Effingham,P-12,438 E State Highway 33,62414 2219
030250300,Dieterich CUSD 30,Mr. Cary Jackson,217-925-5249,http://www.dieterichschools.org,Dieterich,Effingham,P-12,PO Box 187,62424 0187
030250400,Effingham CUSD 40,Mr. Andrew D Johnson,217-540-1500,https://www.unit40.org,Effingham,Effingham,P-12,PO Box 130,62401 0130
030250500,Teutopolis CUSD 50,Mr. Matthew Sturgeon,217-857-3535,http://www.teutopolisschools.org,Teutopolis,Effingham,P-12,PO Box 607,62467 0607
030262010,Brownstown CUSD 201,Mr. David Lund,618-427-3355,http://www.bcusd201.com,Brownstown,Fayette,P-12,421 S College Ave,62418 1129
030262020,St Elmo CUSD 202,Travis Portz,618-829-3264,http://www.stelmo.org,Saint Elmo,Fayette,P-12,1200 N Walnut St,62458 1368
030262030,Vandalia CUSD 203,Dr. Jennifer D Garrison,618-283-4525,http://vandals203.org,Vandalia,Fayette,P-12,1109 N 8th St,62471 1240
030262040,Ramsey CUSD 204,Mrs. Melissa Ritter,618-423-2335,http://www.ramsey.fayette.k12.il.us,Ramsey,Fayette,P-12,702 W 6th St,62080 0010
030680020,Panhandle CUSD 2,Mr. Aaron Hopper,217-229-4215,http://www.panhandleschools.com,Raymond,Montgomery,P-12,509 N Prairie St,62560 4906
030680030,Hillsboro CUSD 3,Hope McBrain,217-532-2942,http://www.hillsboroschools.net,Hillsboro,Montgomery,P-12,1311 Vandalia Rd,62049 2034
030680120,Litchfield CUSD 12,Dr. Kelly McClain,217-324-2157,http://www.litchfieldpanthers.org,Litchfield,Montgomery,P-12,PO Box 448,62056 0448
030680220,Nokomis CUSD 22,Dr. Scott E Doerr,217-563-7311,http://www.nokomis.k12.il.us,Nokomis,Montgomery,P-12,511 Oberle St,62075 1015
040041000,Belvidere CUSD 100,Dr. Cassandra J Schug,815-544-8513,http://www.district100.com,Belvidere,Boone,P-12,1201 5th Ave,61008 5125
040042000,North Boone CUSD 200,Dr. Matthew Cascio,815-765-3322,http://www.nbcusd.org,Poplar Grove,Boone,P-12,6248 N Boone School Rd,61065 8548
041011220,Harlem UD 122,Dr. Terrell Yarbrough,815-654-4500,http://www.harlem122.org,Machesney Park,Winnebago,P-12,8605 N 2nd St,61115 2003
041011310,Kinnikinnick CCSD 131,Mrs. Keli Freedlund,815-623-2837,http://www.kinn131.org,Roscoe,Winnebago,P-8,5410 Pine Ln,61073 7313
041011330,Prairie Hill CCSD 133,Mr. Clint Czizek,815-389-3964,http://prairiehill.org,South Beloit,Winnebago,P-8,6605 Prairie Hill Rd,61080 9530
041011340,Shirland CCSD 134,Dr. Ryan Wlodek,815-629-2000,http://shirland134.org,Shirland,Winnebago,K-8,PO Box 99,61079 0099
041011400,Rockton SD 140,Dr. Daniel Phelps,815-624-7143,http://www.rockton140.org,Rockton,Winnebago,P-8,1050 E Union St,61072 1628
041012050,Rockford SD 205,Dr. Ehren Jarrett,815-966-3000,http://www.rps205.com,Rockford,Winnebago,P-12,501 7th St,61104 1242
041012070,Hononegah CHD 207,Mr. Michael Dugan,815-624-5010,,Rockton,Winnebago,9-12,307 Salem St,61072 2630
041013200,County of Winnebago SD 320,Dr. Nikolas C Butenhoff,815-389-3478,http://www.sb320.org,South Beloit,Winnebago,P-12,850 Hayes Ave,61080 2119
041013210,Pecatonica CUSD 321,Mr. Carl Carlson,815-239-1639,,Pecatonica,Winnebago,P-12,PO Box 419,61063 0419
041013220,Durand CUSD 322,Mr. Kurt Alberstett,815-248-2171,http://www.durandbulldogs.com,Durand,Winnebago,P-12,200 W South St,61024 9403
041013230,Winnebago CUSD 323,Dr. John Schwuchow,815-335-2456,http://www.winnebagoschools.org,Winnebago,Winnebago,P-12,304 E McNair Rd,61088 9014
050160150,Palatine CCSD 15,Dr. Laurie Heinz,847-963-3000,http://www.ccsd15.net,Palatine,Cook,P-8,580 N 1st Bank Dr,60067 8110
050160210,Wheeling CCSD 21,Dr. Michael Connolly,847-537-8270,http://www.ccsd21.org,Wheeling,Cook,P-8,959 W Dundee Rd,60090
050160230,Prospect Heights SD 23,Dr. Don Angelaccio,847-870-3850,http://www.d23.org,Prospect Heights,Cook,P-8,700 N Schoenbeck Rd,60070 1231
050160250,Arlington Heights SD 25,Dr. Brian Kaye,847-758-4900,http://www.sd25.org,Arlington Heights,Cook,P-8,1200 S Dunton Ave,60005 3111
050160260,River Trails SD 26,Dr. Jodi Megerle,847-297-4120,,Mt Prospect,Cook,P-8,1900 E Kensington Rd,60056 1924
050160270,Northbrook ESD 27,Dr. John B Deiter,847-498-2610,http://www.nb27.org,Northbrook,Cook,P-8,1250 Sanders Rd,60062 2900
050160280,Northbrook SD 28,Dr. Jason Pearson,847-498-7900,http://www.northbrook28.net,Northbrook,Cook,P-8,1475 Maple Ave,60062 5418
050160290,Sunset Ridge SD 29,Dr. Edward J Stange,847-881-9456,http://www.sunsetridge29.org,Northfield,Cook,P-8,525 Sunset Ridge Rd,60093 1025
050160300,Northbrook/Glenview SD 30,Dr. Emily Tammaru,847-498-4190,http://www.district30.org,Northbrook,Cook,P-8,2374 Shermer Rd,60062 6729
050160310,West Northfield SD 31,Dr. Erin  Murphy,847-272-6880,http://www.district31.net,Northbrook,Cook,P-8,3131 Techny Rd,60062 5857
050160340,Glenview CCSD 34,Dr. Dane Delli,847-998-5005,http://www.glenview34.org,Glenview,Cook,P-8,1401 Greenwood Rd,60026 1511
050160350,Glencoe SD 35,Dr. Catherine G Wang,847-835-7800,http://www.glencoeschools.org,Glencoe,Cook,K-8,620 Greenwood Ave,60022 1650
050160360,Winnetka SD 36,Dr. Kelly Tess,847-446-9400,http://www.winnetka36.org,Winnetka,Cook,P-8,1235 Oak St,60093 2168
050160370,Avoca SD 37,Dr. Sandra Arreguin,847-251-3587,http://avoca37.org,Wilmette,Cook,P-8,2921 Illinois Rd,60091 1103
050160380,Kenilworth SD 38,Ms. Kate Donegan,847-256-5006,http://www.kenilworth38.org,Kenilworth,Cook,P-8,542 Abbotsford Rd,60043 1161
050160390,Wilmette SD 39,Dr. Kari Cremascoli,847-512-6030,http://www.wilmette39.org,Wilmette,Cook,P-8,615 Locust Rd,60091 2237
050160540,Schaumburg CCSD 54,Mr. Andrew D DuRoss,847-357-5000,http://www.sd54.org,Schaumburg,Cook,P-8,524 E Schaumburg Rd,60194 3510
050160570,Mount Prospect SD 57,Dr. Mary Gorr,847-394-7300,http://www.d57.org,Mt Prospect,Cook,P-8,701 W Gregory St,60056 2220
050160590,Comm Cons SD 59,Dr. Terri Bresnahan,847-593-4300,http://www.ccsd59.org,Elk Grove Vlg,Cook,P-8,1001 Leicester Rd,60007 3443
050160620,CCSD 62,Dr. Michael Amadei,847-824-1136,http://www.d62.org,Des Plaines,Cook,P-8,777 E Algonquin Rd,60016 6251
050160630,East Maine SD 63,Dr. Shawn Schleizer,847-299-1900,http://www.emsd63.org,Des Plaines,Cook,P-8,10150 Dee Rd,60016 1512
050160640,Park Ridge CCSD 64,Dr. Ben Collins,847-318-4300,http://d64.org,Niles,Cook,P-8,8182 W Greendale Ave,60714
050160650,Evanston CCSD 65,Dr. Angel Turner,847-859-8010,http://www.district65.net,Evanston,Cook,P-8,1500 McDaniel Ave,60201 3976
050160670,Golf ESD 67,Dr. Susan Coleman,847-966-8200,http://www.golf67.net,Morton Grove,Cook,P-8,9401 Waukegan Rd,60053 1353
050160680,Skokie SD 68,Dr. Scott Grens,847-676-9000,http://www.skokie68.org,Skokie,Cook,P-8,9440 Kenton Ave,60076 1338
050160690,Skokie SD 69,Dr. Margaret Clauson,847-675-7666,http://www.sd69.org,Skokie,Cook,P-8,5050 Madison St,60077 2578
050160700,Morton Grove SD 70,Mr. Matthew Condon,847-965-6200,http://www.mgsd70.org,Morton Grove,Cook,P-8,6200 Lake St,60053 2416
050160710,Niles ESD 71,Dr. John Kosirog,847-470-3407,http://www.niles71.org,Niles,Cook,P-8,6901 W Oakton St,60714 3024
050160720,Fairview SD 72,Dr. Cindy Whittaker,847-929-1050,http://www.fairview72.com,Skokie,Cook,P-8,7040 Laramie Ave,60077 3443
050160730,East Prairie SD 73,Dr. Paul Goldberg,847-673-1141,http://www.eps73.net,Skokie,Cook,P-8,7616 E Prairie Rd,60076 3758
050160735,Skokie SD 73-5,Dr. Charles Kyle,847-324-0509,http://www.sd735.org,Skokie,Cook,P-8,8000 E Prairie Rd,60076 3402
050160740,Lincolnwood SD 74,Dr. David Russo,847-675-8234,http://sd74.org,Lincolnwood,Cook,P-8,6950 N East Prairie Rd,60712 2520
050162020,Evanston Twp HSD 202,Dr. Marcus Campbell,847-424-7220,http://www.eths.k12.il.us,Evanston,Cook,9-12,1600 Dodge Ave,60201 3449
050162030,New Trier Twp HSD 203,Dr. Peter Tragos,847-784-6109,https://www.newtrier.k12.il.us/,Northfield,Cook,9-12,7 Happ Rd,60093 3411
050162070,Maine Township HSD 207,Dr. Tatiana M Bonuma Dos Santos,847-696-3600,http://www.maine207.org,Park Ridge,Cook,9-12,1177 S Dee Rd,60068 4379
050162110,Township HSD 211,Dr. Judith Campbell,847-755-6600,https://adc.d211.org/,Palatine,Cook,9-12,1750 S Roselle Rd,60067 7302
050162140,Township HSD 214,Dr. Scott Rowe,847-718-7600,http://www.d214.org,Arlington Heights,Cook,9-12,2121 S Goebbert Rd,60005 4205
050162190,Niles Twp HSD 219,Mr. Thomas Moore,847-626-3960,http://www.niles219.org,Skokie,Cook,9-12,7700 Gross Point Rd,60077 2614
050162250,Glenbrook HSD 225,Dr. Raoul J Gravel III,847-998-6100,http://www.glenbrook225.org,Glenview,Cook,9-12,3801 W Lake Ave,60026 1292
060160780,Rosemont ESD 78,Dr. William Pender,847-825-0144,,Rosemont,Cook,P-8,6101 Ruby St,60018 4450
060160790,Pennoyer SD 79,Dr. Kristin Kopta,708-967-2840,http://www.pennoyerschool.org,Norridge,Cook,P-8,5200 N Cumberland Ave,60706 1499
060160800,Norridge SD 80,Mrs. Michele Guzik,708-583-2068,http://www.norridge80.org,Norridge,Cook,P-8,8151 W Lawrence Ave,60706 3136
060160810,Schiller Park SD 81,Dr. Melissa  Kartsimas,847-671-1816,http://www.sd81.org,Schiller Park,Cook,P-8,9760 Soreng Ave,60176 2105
060160830,Mannheim SD 83,Dr. Diego Giraldo,847-455-4413,http://www.d83.org,Franklin Park,Cook,P-8,10401 Grand Ave,60131 2208
060160840,Franklin Park SD 84,Dr. David H Katzin,847-455-4230,http://www.d84.org,Franklin Park,Cook,P-8,2915 Maple St,60131 3031
060160845,Rhodes SD 84-5,James Prather,708-453-1266,http://www.rhodes.k12.il.us,River Grove,Cook,P-8,8931 Fullerton Ave,60171 1810
060160855,River Grove SD 85-5,Dr. Jan Rashid,708-453-6172,http://www.rivergroveschool.org,River Grove,Cook,P-8,2650 Thatcher Ave,60171 1650
060160860,Union Ridge SD 86,Mr. Michael Maguire,708-867-5822,http://www.urs86.org,Harwood Heights,Cook,P-8,4600 N Oak Park Ave,60706 4823
060160870,Berkeley SD 87,Dr. Dan Sullivan,708-449-3350,http://www.berkeley87.org,Berkeley,Cook,P-8,1200 N Wolf Rd,60163 1219
060160880,Bellwood SD 88,Dr. Victoria H Stockton,708-410-3028,http://www.sd88.org,Bellwood,Cook,P-8,640 Eastern Ave,60104 1878
060160890,Maywood-Melrose Park-Broadview 89,Dr. Algeanna Griffin,708-427-8591,http://www.maywood89.org,Melrose Park,Cook,P-8,906 Walton St,60160 3540
060160900,River Forest SD 90,Dr. Edward J Condon,708-771-8282,,River Forest,Cook,P-8,7776 Lake St,60305 1735
060160910,Forest Park SD 91,Dr. Robert Hubbird,708-366-5700,http://www.fpsd91.org,Forest Park,Cook,P-8,424 Des Plaines Ave,60130 1718
060160920,Lindop SD 92,Dr. Emily Erickson-Betz,708-786-6458,http://lindop92.net,Broadview,Cook,P-8,2400 S 18th Ave,60155 3930
060160925,Westchester SD 92-5,Dr. Philip Salemi,708-450-2700,http://www.sd925.org,Westchester,Cook,P-8,9981 Canterbury St,60154 4424
060160930,Hillside SD 93,Dr. Antonia Lippitt-Hill,708-449-6490,http://www.hillside93.org,Hillside,Cook,P-8,4804 Harrison St,60162 1601
060160940,Komarek SD 94,Dr. Todd Fitzgerald,708-447-8030,http://www.komarekschool.org,North Riverside,Cook,P-8,8940 W 24th St,60546 1158
060160950,Brookfield Lagrange Park SD 95,Mr. Ryan Evans,708-485-0606,,Brookfield,Cook,P-8,3724 Prairie Ave,60513 1612
060160960,Riverside SD 96,Dr. Martha RyanToye,708-447-5007,http://www.district96.org,Riverside,Cook,P-8,3340 Harlem Ave,60546 2126
060160970,Oak Park ESD 97,Mr. Patrick Robinson,708-524-3000,http://www.op97.org,Oak Park,Cook,P-8,260 Madison St,60302 4112
060160980,Berwyn North SD 98,Dr. Michelle Smith,708-484-6200,http://www.bn98.org,Berwyn,Cook,P-8,6633 16th St,60402 1320
060160990,Cicero SD 99,Dr. Aldo Calderin,708-863-4856,http://www.cicd99.edu,Cicero,Cook,P-8,5110 W 24th St,60804 2948
060161000,Berwyn South SD 100,Dr. Mary Havis,708-795-2300,http://www.bsd100.org,Berwyn,Cook,P-8,3401 Gunderson Ave,60402 3771
060161010,Western Springs SD 101,Dr. Sarah L Coffey,708-246-3700,,Western Springs,Cook,P-8,4225 Wolf Rd,60558 1453
060161020,La Grange SD 102,Dr. Christopher Covino,708-482-2400,http://www.dist102.k12.il.us,La Grange Park,Cook,P-8,333 N Park Rd,60526 1802
060161030,Lyons SD 103,Mr. Kristopher Rivera,708-783-4100,http://www.lyons103.org,Lyons,Cook,P-8,4100 Joliet Ave,60534 1513
060161050,La Grange SD 105 South,Dr. Brian Ganan,708-482-2700,http://d105.net,La Grange,Cook,P-8,701 7th Ave,60525 6705
060161060,LaGrange Highlands SD 106,Mr. John Munch,708-246-3085,http://www.district106.net,La Grange Highlands,Cook,P-8,1750 W Plainfield Rd,60525 3727
060161070,Pleasantdale SD 107,Dr. David Palzet,708-784-2013,http://www.d107.org,Burr Ridge,Cook,P-8,7450 Wolf Rd,60527 7714
060162000,Oak Park - River Forest SD 200,Dr. Gregory Johnson,708-383-0700,http://www.oprfhs.org,Oak Park,Cook,9-12,201 N Scoville Ave,60302 2264
060162010,J S Morton HSD 201,Dr. Michael Kuzniewski,708-780-2800,http://www.morton201.org/,Cicero,Cook,9-12,5801 W Cermak Rd,60804 2102
060162040,Lyons Twp HSD 204,Dr. Brian P Waterman,708-579-6451,,La Grange,Cook,9-12,100 S Brainard Ave,60525 2101
060162080,Riverside-Brookfield Twp SD 208,Dr. Kevin Skinkis,708-442-7500,http://rbhs208.net,Riverside,Cook,9-12,160 Ridgewood Rd,60546 2408
060162090,Proviso Twp HSD 209,Mr. Krish Mohip,708-338-5913,http://www.pths209.org,Forest Park,Cook,9-12,8601 Roosevelt Rd,60130 2532
060162120,Leyden CHSD 212,Dr. Nick Polyak,847-451-3020,http://www.leyden212.org,Franklin Park,Cook,9-12,3400 Rose St,60131 2155
060162340,Ridgewood CHSD 234,Dr. Jennifer Kelsall,708-456-4242,http://www.d234.org,Norridge,Cook,9-12,7500 W Montrose Ave,60706 1153
060164010,Elmwood Park CUSD 401,Dr. Leah Gauthier,708-583-5831,http://www.epcusd401.org,Elmwood Park,Cook,P-12,8201 W Fullerton Ave,60707 2449
070161040,Summit SD 104,Dr. David Negron,708-458-0505,,Summit Argo,Cook,P-8,7505 West 63rd Street,60501
070161080,Willow Springs SD 108,Mr. Steve Bahn,708-839-6828,http://www.willowspringsschool.org,Willow Springs,Cook,K-8,8345 Archer Ave,60480 1402
070161090,Indian Springs SD 109,Mrs. Crystal Skoczylas,708-496-8700,http://www.isd109.org,Justice,Cook,P-8,7540 S 86th Ave,60458 1168
070161100,Central Stickney SD 110,Ms. Erin Hackett,708-458-1152,http://www.sahs.k12.il.us,Chicago,Cook,P-8,5001 S Long Ave,60638 1733
070161110,Burbank SD 111,Dr. Franzy Fleck,708-496-0500,http://www.bsd111.org,Burbank,Cook,P-8,7600 Central Ave,60459 1308
07016113A,Lemont-Bromberek CSD 113A,Dr. Courtney Orzel,630-257-2286,http://www.sd113a.org,Lemont,Cook,P-8,16100 W 127th St,60439 7462
070161170,North Palos SD 117,Dr. Christine Droba,708-598-5500,http://www.npd117.net,Palos Hills,Cook,P-8,7825 W 103rd St,60465 1676
070161180,Palos CCSD 118,Dr. Anthony M Scarsella,708-448-4800,http://www.palos118.org,Palos Park,Cook,P-8,8800 W 119th St,60464 1081
070161220,Ridgeland SD 122,Mr. Joseph E Matise,708-599-5550,http://www.ridgeland122.com,Oak Lawn,Cook,P-8,6500 W 95th St,60453 2167
070161230,Oak Lawn-Hometown SD 123,Dr. Paul Enderle,708-423-0150,http://www.d123.org,Oak Lawn,Cook,P-8,4201 W 93rd St,60453 1998
070161240,Evergreen Park ESD 124,Dr. Jenna L Woodland,708-423-0950,http://www.d124.org,Evergreen Park,Cook,P-8,2929 W 87th St,60805 1036
070161250,Atwood Heights SD 125,Mrs. Lisa Cole,708-371-0080,http://www.ahsd125.org,Alsip,Cook,P-8,12150 S Hamlin Ave,60803 1218
070161260,Alsip-Hazlgrn-Oaklwn SD 126,Mr. Craig Gwaltney,708-389-1900,http://www.dist126.org,Alsip,Cook,P-8,11900 S Kostner Ave,60803 2307
070161270,Worth SD 127,Dr. Mark Fleming,708-448-2800,http://www.worthschools.org,Worth,Cook,P-8,11218 S Ridgeland Ave,60482 1970
070161275,Chicago Ridge SD 127-5,Dr. Adam Thorns,708-636-2000,http://www.crsd1275.org,Chicago Ridge,Cook,P-8,6135 108th St,60415 2190
070161280,Palos Heights SD 128,Dr. Merryl Brownlow,708-597-9040,http://www.palos128.org,Palos Heights,Cook,P-8,12809 S McVickers Ave,60463 2351
070161300,Cook County SD 130,Dr. Colleen M McKay,708-385-6800,,Blue Island,Cook,P-8,12300 Greenwood Ave,60406 1558
070161320,Calumet Public SD 132,Dr. Adrienne Saverson,708-388-8920,http://www.sd132.org,Calumet Park,Cook,P-8,1440 W Vermont Ave,60827 6328
070161330,Gen George Patton SD 133,Mr. David L Brown,708-841-3955,http://www.district133.org,Riverdale,Cook,P-8,150 W 137th St,60827 1613
070161350,Orland SD 135,John Bryk,708-364-3306,http://www.orland135.org,Orland Park,Cook,P-8,15100 S 94th Ave,60462 3291
070161400,Kirby SD 140,Dr. Daniel Callaghan,708-532-6462,http://ksd140.org,Tinley Park,Cook,P-8,16931 Grissom Dr,60477 2318
070161420,Forest Ridge SD 142,Dr. Kristine Roth,708-687-3334,http://www.d142.org,Oak Forest,Cook,P-8,5800 151St St,60452 1940
070161430,Midlothian SD 143,Dr. Angela M Crotty,708-388-6450,http://www.msd143.com,Midlothian,Cook,P-8,14959 Pulaski Rd,60445 3436
070161435,Posen-Robbins ESD 143-5,Dr. Anthony Edison,708-388-7200,http://www.prsd1435.org,Posen,Cook,P-8,14011 S Harrison Ave,60469 1025
070161440,Prairie-Hills ESD 144,Dr. Kinasha Brown,708-210-2898,,Markham,Cook,P-8,3015 W 163rd St,60428 5626
070161450,Arbor Park SD 145,Dr. Andrea L Sala,708-687-8040,http://arbor145.org,Oak Forest,Cook,P-8,17301 Central Ave,60452 4920
070161460,CCSD 146,Dr. Jeff Stawick,708-614-4500,http://www.district146.org,Tinley Park,Cook,P-8,6611 171st St,60477 3514
070161470,W Harvey-Dixmoor PSD 147,Dr. Kenneth Scott,708-339-9500,http://www.whd147.org,Harvey,Cook,P-8,191 W 155th Pl,60426 3413
070161480,Dolton SD 148,Dr. Sheila Harrison-Williams,708-841-2290,http://www.district148.net,Riverdale,Cook,P-8,114 W 144th St,60827 2703
070161490,Dolton SD 149,Dr. Maureen M White,708-868-7868,http://www.schooldistrict149.org,Calumet City,Cook,P-8,292 Torrence Ave,60409 1941
070161500,South Holland SD 150,Dr. Jerome Ferrell,708-339-4240,http://www.sd150.org,South Holland,Cook,P-8,848 E 170th St,60473 3413
070161510,South Holland SD 151,Dr. Teresa D Hill,708-339-1516,http://www.shsd151.org,South Holland,Cook,P-8,525 E 162nd St,60473 2384
070161520,Harvey SD 152,Dr. Reginald Lawrence,708-333-0300,http://www.harvey152.org,Harvey,Cook,P-8,16001 Lincoln Ave,60426 4916
070161525,Hazel Crest SD 152-5,Dr. Cynthia  Levy,708-335-0790,,E Hazel Crest,Cook,P-8,1223 173Rd St,60429 1919
070161530,Homewood SD 153,Dr. Scott E McAlister,708-799-8721,,Homewood,Cook,P-8,18205 Aberdeen St,60430 2417
070161540,Thornton SD 154,Dr. Thomas Hurlburt,708-877-5160,http://www.d154.org,Thornton,Cook,P-8,200 N Wolcott St,60476 1254
070161545,Burnham SD 154-5,Mr. Stephen Geraci,708-862-8636,http://www.d1545.org,Burnham,Cook,K-8,13945 S Green Bay Ave,60633 1671
070161550,Calumet City SD 155,Dr. Joseph H Zotto,708-868-7926,http://www.calumetcity155.org,Calumet City,Cook,P-8,540 Superior Ave,60409 3452
070161560,Lincoln ESD 156,Dr. Anita Rice,708-862-6625,http://l156.org,Calumet City,Cook,P-8,912 Burnham Ave,60409
070161570,Hoover-Schrum Memorial SD 157,Dr. Dwayne Evans,708-868-7500,http://www.hsdist157.org,Calumet City,Cook,P-8,1255 Superior Ave,60409 5703
070161580,Lansing SD 158,Dr. Nathan Schilling,708-474-6700,http://www.d158.net,Lansing,Cook,P-8,18300 Greenbay Ave,60438 3009
070161590,ESD 159,Dr. Tiffany Brunson,708-720-1300,http://www.dist159.com,Matteson,Cook,P-8,20700 Matteson Ave,60443 1058
070161600,Country Club Hills SD 160,Dr. Denise Julius,708-957-6200,,Country Club Hills,Cook,P-8,4411 185th St,60478 4501
070161610,Flossmoor SD 161,Dr. Dana Smith,708-647-7038,http://www.sd161.org,Chicago Heights,Cook,P-8,41 E Elmwood Dr,60411 1104
070161620,Matteson ESD 162,Dr. Blondean Davis,708-748-0100,,Richton Park,Cook,P-8,4601 Sauk Trl,60471 1470
070161630,Park Forest - Chicago Heights School District 163,Dr. Ericka Patterson,708-668-9400,,Park Forest,Cook,P-8,242 S Orchard Dr,60466 2041
070161670,Brookwood SD 167,Ms. Bethany Lindsay,708-758-5190,http://www.brookwood167.org,Glenwood,Cook,P-8,201 E Glenwood Dyer Rd,60425 1845
070161680,CCSD 168,Dr. Donna Leak,708-758-1614,http://www.d168.org,Sauk Village,Cook,P-8,21899 Torrence Ave,60411 4489
070161690,Ford Heights SD 169,Dr. Gregory T Jackson,708-758-1370,,Ford Heights,Cook,P-8,910 Woodlawn Ave,60411 2299
070161700,Chicago Heights SD 170,Thomas J Amadio,708-756-4165,https://www.sd170.com,Chicago Heights,Cook,P-8,30 W 16th St,60411 3412
070161710,Sunnybrook SD 171,Dr. Erika Millhouse Pettis,708-895-0750,http://www.sd171.org,Lansing,Cook,P-8,19266 Burnham Ave,60438 3822
070161720,Sandridge SD 172,Dr. Kim Nalls,708-895-8339,http://www.d172.s-cook.k12.il.us/,Lynwood,Cook,P-8,2950 Glenwood Dyer Rd,60411 9755
070161940,Steger SD 194,Dr. Anthony McConnell,708-753-4300,http://www.sd194.org,Steger,Cook,P-8,3753 Park Ave,60475 1818
070162050,Thornton Twp HSD 205,Dr. Nathaniel Cunningham,708-225-4020,http://www.district205.net,South Holland,Cook,9-12,465 E 170th St,60473 3400
070162060,Bloom Twp HSD 206,Dr. Lenell Navarre,708-755-7010,,Chicago Heights,Cook,9-12,100 W 10th St,60411 2002
070162100,Lemont Twp HSD 210,Dr. Matt  Maxwell,630-243-3260,http://www.lhs210.net,Lemont,Cook,9-12,800 Porter St,60439 3777
070162150,Thornton Fractional Twp HSD 215,Mr. Raymond Williams,708-585-2309,https://www.tfd215.org/,Lansing,Cook,9-12,18601 Torrence Ave,60438 2830
070162170,Argo CHSD 217,Dr. Brandon Cotter,708-728-3200,http://www.argohs.net,Summit,Cook,9-12,7329 W 63rd St,60501 1817
070162180,CHSD 218,Dr. Josh Barron,708-424-2000,http://chsd218.org,Oak Lawn,Cook,9-12,10701 Kilpatrick Ave,60453 6203
070162200,Reavis Twp HSD 220,Dr. Daniel J Riordan,708-599-7200,http://www.reavisd220.org,Burbank,Cook,9-12,6034 W 77th St,60459 3112
070162270,Rich Twp HSD 227,Dr. Johnnie Thomas,708-679-5737,http://www.rich227.org,Matteson,Cook,9-12,20550 S Cicero Ave,60443 1646
070162280,Bremen CHSD 228,Dr. Brad Sikora,708-389-1175,,Midlothian,Cook,9-12,15233 Pulaski Rd,60445 3755
070162290,Oak Lawn CHSD 229,Dr. Shahe Bagdasarian,708-424-5200,http://www.olchs.org,Oak Lawn,Cook,9-12,9400 Southwest Hwy,60453 2372
070162300,Cons HSD 230,Dr. Robert Nolting,708-745-5210,http://www.d230.org,Orland Park,Cook,9-12,15100 S 94th Ave,60462 3291
070162310,Evergreen Park CHSD 231,Mr. Thomas OMalley,708-424-7400,,Evergreen Park,Cook,9-12,9901 S Kedzie Ave,60805 3416
070162330,Homewood Flossmoor CHSD 233,Dr. Jennifer Norrell,708-799-3000,,Flossmoor,Cook,9-12,999 Kedzie Ave,60422 2248
080083080,Eastland CUSD 308,Dr. Alex Kashner,815-864-2300,http://www.eastland308.com,Shannon,Carroll,P-12,601 S Chestnut St,61078 9015
080083140,West Carroll CUSD 314,Dr. Heidi Deininger,815-244-2005,http://www.wc314.org,Mount Carroll,Carroll,P-12,633 S East St,61053 1462
080083990,Chadwick-Milledgeville CUSD 399,Mr. Timothy J Schurman,815-225-5839,http://www.dist399.net,Milledgeville,Carroll,P-12,100 E 8Th St,61051 9016
080431190,East Dubuque USD 119,TJ Potts,815-747-2111,http://www.eastdbqschools.org,East Dubuque,Jo Daviess,P-12,100 N School Rd,61025 1174
080431200,Galena USD 120,Mr. Timothy Vincent,815-777-3086,http://www.gusd120.k12.il.us,Galena,Jo Daviess,P-12,1206 Franklin St,61036 1317
080432050,Warren CUSD 205,Dr. Shawn Steven Teske,815-745-2653,http://205warren.net,Warren,Jo Daviess,P-12,311 S Water St,61087 9360
080432060,Stockton CUSD 206,Mr. James Bunting,815-947-3391,http://www.stocktonschools.com,Stockton,Jo Daviess,P-12,540 N Rush St,61085 1033
080432100,River Ridge CUSD 210,Mrs. Colleen Fox,815-858-9005,http://riverridge210.org,Hanover,Jo Daviess,P-12,4141 IL Route 84 S,61041 9631
080432110,Scales Mound CUSD 211,Dr. Marybeth DeLaMar,815-845-2215,,Scales Mound,Jo Daviess,P-12,210 Main St,61075 9393
080891450,Freeport SD 145,Dr. Anna Alvarado,815-232-0300,http://www.freeport.k12.il.us,Freeport,Stephenson,P-12,501 E South St,61032 9676
080892000,Pearl City CUSD 200,Dr. Michael Schiffman,815-443-2715,http://www.pcwolves.net,Pearl City,Stephenson,P-12,100 S Summit St,61062
080892010,Dakota CUSD 201,Jenny Keffer,844-632-5682,http://www.dakota201.org,Dakota,Stephenson,P-12,400 Campus Dr,61018 9803
080892020,Lena Winslow CUSD 202,Dr. Thomas R Chiles,815-369-2525,http://www.le-win.net/,Lena,Stephenson,P-12,401 Fremont St,61048 8610
080892030,Orangeville CUSD 203,Mrs. Julie Katzenberger,815-789-4289,http://www.orangevillecusd.com,Orangeville,Stephenson,P-12,201 S Orange St,61060 9720
090100010,Fisher CUSD 1,Ms. Barbara Thompson,217-897-6125,http://district.fisherk12.com/district,Fisher,Champaign,K-12,801 S 5th St,61843 9522
090100030,Mahomet-Seymour CUSD 3,Dr. Kenneth Lee,217-586-2161,http://www.mahometseymour.org,Mahomet,Champaign,P-12,1301 S Bulldog Dr,61853
090100040,Champaign CUSD 4,Mr. Daniel Casillas,217-351-3838,http://champaignschools.org,Champaign,Champaign,P-12,502 W Windsor Rd,61820 7739
090100070,Tolono CUSD 7,Dr. Brian Brink,217-485-6510,http://www.unitsevenschools.com,Tolono,Champaign,P-12,PO Box 720,61880 0720
090100080,Heritage CUSD 8,Dr. Kimberly M Norton,217-896-2041,http://www.heritage8.org,Homer,Champaign,K-12,512 W 1st St,61849 1215
090101160,Urbana SD 116,Dr. Jennifer Ivory Tatum,217-384-3636,http://www.usd116.org,Urbana,Champaign,P-12,PO Box 3039,61803 3039
090101300,Thomasboro CCSD 130,Bonnie McArthur,217-643-3275,http://www.thomasboro.k12.il.us,Thomasboro,Champaign,P-8,201 N Phillips St,61878 9784
090101370,Rantoul City SD 137,Dr. Scott Woods,217-893-4171,http://www.rcs137.org,Rantoul,Champaign,P-8,1 Aviation Ctr,61866 3481
090101420,Ludlow CCSD 142,Mr. Jeffrey Graham,217-396-5261,http://www.roe9.k12.il.us,Ludlow,Champaign,K-8,PO Box 130,60949 0130
090101690,St Joseph CCSD 169,Lance Landeck,217-469-2291,https://www.stjoe.k12.il.us/,Saint Joseph,Champaign,P-8,PO Box 409,61873 0409
090101880,Gifford CCSD 188,Mr. Jared Ellison,217-568-7733,http://www.gifford.k12.il.us,Gifford,Champaign,K-8,PO Box 70,61847 0070
090101930,Rantoul Township HSD 193,Mr. Scott Amerio,217-892-6001,http://www.rths193.org,Rantoul,Champaign,9-12,200 S Sheldon St,61866 2431
090101970,Prairieview-Ogden CCSD 197,Mr. Todd Wilson,217-583-3300,http://www.pvo.k12.il.us,Royal,Champaign,K-8,PO Box 27,61871 0027
090103050,St Joseph Ogden CHSD 305,Mr. Brian Brooks,217-469-2586,http://www.sjo.k12.il.us,Saint Joseph,Champaign,9-12,PO Box 890,61873 0890
090270050,Gibson City-Melvin-Sibley CUSD 5,Mr. Jeremy Darnell,217-784-8296,http://www.gcmsk12.org,Gibson City,Ford,P-12,307 N Sangamon Ave,60936 1255
090270100,Paxton-Buckley-Loda CUD 10,Mr. Jon Kilgore,217-379-3314,http://pblunit10.com,Paxton,Ford,P-12,PO Box 50,60957 0050
11012002C,Marshall CUSD 2C,Mr. Kevin Ross,217-826-5912,http://www.marshallk12.net,Marshall,Clark,P-12,503 Pine St,62441 1467
11012003C,Martinsville CUSD 3C,Mr. Robert Waggoner,217-382-4321,http://www.martinsville.k12.il.us,Martinsville,Clark,P-12,PO Box K,62442 0166
11012004C,Casey-Westfield CUSD 4C,Mr. Mike Shackelford,217-932-2184,http://caseywestfield.org,Casey,Clark,P-12,401 E Main St,62420 1917
110150010,Charleston CUSD 1,Mr. Chad Burgett,217-639-1000,http://charleston.k12.il.us,Charleston,Coles,P-12,410 W Polk Ave,61920 2557
110150020,Mattoon CUSD 2,Mr. Tim Condron,217-238-8850,http://www.mattoon.k12.il.us,Mattoon,Coles,P-12,1701 Charleston Ave,61938 3936
110150050,Oakland CUSD 5,Mr. Nathan Pugh,217-346-2555,http://www.oak.k12.il.us,Oakland,Coles,P-12,310 Teeter St,61943 5304
110180030,Neoga CUSD 3,Mr. Kevin Haarman,217-775-6049,http://www.neoga.k12.il.us,Neoga,Cumberland,P-12,PO Box 280,62447 0280
110180770,Cumberland CUSD 77,Mr. Darrell W Houchin,217-923-3132,http://www.cumberland.k12.il.us,Toledo,Cumberland,P-12,1496 Illinois Route 121,62468 4214
110213010,Tuscola CUSD 301,Mr. Gary Alexander,217-253-4241,http://www.cusd301.org/,Tuscola,Douglas,P-12,409 S Prairie St,61953 1770
110213020,Villa Grove CUSD 302,Dr. Carol Munson,217-832-2261,,Villa Grove,Douglas,P-12,400 N Sycamore St,61956 9771
110213050,Arthur CUSD 305,Shannon Cheek,217-543-2511,http://www.cusd305.org,Arthur,Douglas,P-12,301 E Columbia St,61911 1403
110213060,Arcola CUSD 306,Mr. Tom Mulligan,217-268-4963,http://www.arcola.k12.il.us,Arcola,Douglas,P-12,351 W Washington St,61910 1120
110230010,Shiloh CUSD 1,Dr. Morgan Wilhoit,217-531-1850,http://www.shiloh1.org,Hume,Edgar,P-12,21751 N 575th St,61932 7013
110230030,Kansas CUSD 3,Mrs. Cindy J Spencer,217-948-5174,http://www.kansas.k12.il.us,Kansas,Edgar,P-12,310 S Front St,61933 6205
110230040,Paris CUSD 4,Mrs. Danette F Young,217-465-5391,http://www.crestwood.k12.il.us,Paris,Edgar,P-12,15601 US Highway 150,61944 6071
110230060,Edgar County CUD 6,Mr. Darren Loschen,217-269-2513,http://www.chrisman.k12.il.us,Chrisman,Edgar,P-12,23231 IL Highway 1,61924 7801
110230950,Paris-Union SD 95,Ms. Mary Morgan Ryan,217-465-8448,http://www.paris95.k12.il.us,Paris,Edgar,P-12,300 S Eads Ave,61944 1938
110703000,Sullivan CUSD 300,Dr. Ted Walk,217-728-8341,http://home.sullivan.k12.il.us/,Sullivan,Moultrie,P-12,725 N Main St,61951 1540
110703020,Okaw Valley CUSD 302,Mr. Kent Stauder,217-665-3232,http://www.okawvalley.org,Bethany,Moultrie,P-12,PO Box 97,61914 0097
110870010,Windsor CUSD 1,Mr. Erik Van Hoveln,217-459-2636,https://www.windsorcusd.org/,Windsor,Shelby,P-12,1424 Minnesota Ave,61957 1010
11087003A,Cowden-Herrick CUSD 3A,Mr. Seth Schuler,217-783-2126,http://cowden-herrick.k12.il.us,Cowden,Shelby,P-12,633 County Highway 22,62422 4104
110870040,Shelbyville CUSD 4,Mr. Shane Schuricht,217-774-4626,,Shelbyville,Shelby,P-12,720 W Main St,62565 1334
11087005A,Stewardson-Strasburg CUD 5A,Mr. Kenny Schwengel,217-682-3355,http://www.stew-stras.org,Strasburg,Shelby,P-12,2806 E 600 North Rd,62465 4102
110870210,Central A & M CUD 21,Mrs. Sacha Young,217-226-4042,http://www.camraiders.com,Assumption,Shelby,P-12,406 E Colegrove,62510 1032
120130100,Clay City CUSD 10,Mr. John Neubaum,618-676-1431,http://claycityschools.org,Clay City,Clay,P-12,PO Box 542,62824 0542
120130250,North Clay CUSD 25,Mr. Keith Price,618-665-3358,http://www.northclayschools.com,Louisville,Clay,P-12,PO Box C,62858 0903
120130350,Flora CUSD 35,Dr. Joel Hackney,618-662-2412,http://floraschools.com,Flora,Clay,P-12,630 Vincennes Ave,62839 2155
120170010,Hutsonville CUSD 1,Mr. Travis Titsworth,618-563-4912,http://www.hutsonvilletigers.net,Hutsonville,Crawford,P-12,500 W Clover St,62433 1017
120170020,Robinson CUSD 2,Mr. Kyle Klier,618-544-7511,http://www.robinsonschools.com,Robinson,Crawford,P-12,PO Box 190,62454 0189
120170030,Palestine CUSD 3,Jessica Nicole Sisil,618-586-2713,https://www.palestinecusd3.net/,Palestine,Crawford,P-12,205 S Washington St,62451 1060
120170040,Oblong CUSD 4,Mrs. Michelle Meese,618-592-3933,http://www.oblongschools.net,Oblong,Crawford,P-12,PO Box 40,62449 0040
120400010,Jasper County CUD 1,Mr. Joe Sornberger,618-783-8459,http://www.jaspercountyschools.net,Newton,Jasper,P-12,1401 Clayton Ave,62448 1765
120510100,Red Hill CUSD 10,Mr. Jakie Walker,618-945-2061,http://cusd10.org,Bridgeport,Lawrence,P-12,1250 Judy Ave,62417 1321
120510200,Lawrence County CUD 20,Mr. Doug Daugherty,618-943-2326,http://www.cusd20.com,Lawrenceville,Lawrence,P-12,1802 Cedar St,62439 2157
120800010,Richland County CUSD 1,Mr. Jason Fox,618-395-2324,http://rccu1.net,Olney,Richland,P-12,1100 E Laurel St,62450 2508
130140010,Carlyle CUSD 1,Mrs. Annie Gray,618-594-8283,http://www.carlyle1.org,Carlyle,Clinton,K-12,1400 13th St,62231 1011
130140030,Wesclin CUSD 3,Mrs. Jennifer C Filyaw,618-224-7583,http://www.wesclin.org,Trenton,Clinton,P-12,699 Wesclin Rd,62293 2627
130140120,Breese ESD 12,Dr. Ryan Ketchum,618-526-7128,http://d12bobcats.org,Breese,Clinton,P-8,777 Memorial Dr,62230 1376
130140210,Aviston SD 21,Mr. Phillip R Hamil,618-228-7245,http://www.avistonk-8.org,Aviston,Clinton,P-8,350 S Hull St,62216 3407
130140460,Willow Grove SD 46,Mr. Dave Fults,618-532-3313,http://www.willowgroveschool.com,Centralia,Clinton,P-8,815 W 7th St,62801 5726
130140570,Bartelso SD 57,Mr. Tom Siegler,618-765-2164,http://www.bartelsobraves.com,Bartelso,Clinton,P-8,PO Box 267,62218 0267
130140600,Germantown SD 60,Mrs. Robin M Becker,618-523-4253,http://www.ges60.org,Germantown,Clinton,P-8,PO Box 400,62245 0400
130140620,Damiansville SD 62,Mr. Kent Hawley,618-248-5188,http://www.dville62.com,Damiansville,Clinton,P-8,101 E Main St,62215 1303
130140630,Albers SD 63,Mike Toeben,618-248-5146,http://www.albersschool.dyndns.org,Albers,Clinton,P-8,PO Box 104,62215 0104
130140710,Central CHSD 71,Dr. Dustin Foutch,618-526-4510,http://www.centralcougars.org,Breese,Clinton,9-12,7740 Old US Highway 50,62230 3822
130141415,St Rose SD 14-15,Dr. Erick R Baer,618-526-7484,http://www.strosedistrict14-15.com,Breese,Clinton,P-8,18004 Saint Rose Rd,62230 2578
130141860,North Wamac SD 186,Mr. Brad E Morris,618-532-1826,http://northwamac.com,Centralia,Clinton,K-8,1500 Case St,62801 5050
130410010,Waltonville CUSD 1,Mr. Mike Denault,618-279-7211,https://www.wcusd1.org/,Waltonville,Jefferson,P-12,804 W Knob St,62894 2812
130410020,Rome CCSD 2,Sarah Mellott,618-266-7214,http://www.rome2.net,Dix,Jefferson,P-8,233 W South St,62830 1403
130410030,Field CCSD 3,Ms. Jennifer Arnold,618-755-4611,http://www.fieldpanthers.com,Texico,Jefferson,P-8,21075 N Hails Ln,62889 2932
130410050,Opdyke-Belle-Rive CCSD 5,Dr. DiAnna Thompson,618-756-2492,http://www.obr5.org/,Opdyke,Jefferson,K-8,19380 E 4Th St,62872 1014
130410060,Grand Prairie CCSD 6,Mrs. Tommi Ryan,618-249-6289,,Centralia,Jefferson,K-8,21462 N Richview Ln,62801 8520
130410120,McClellan CCSD 12,Mr. Robin E Brooks,618-244-8072,https://sites.google.com/site/mcclellanccschool/home,Mount Vernon,Jefferson,K-8,9475 N IL Highway 148,62864 6379
130410790,Summersville SD 79,Dr. Kimberly Dawn Matthews,618-244-8079,http://www.summersville79.com,Mount Vernon,Jefferson,K-8,1118 Fairfield Rd,62864 5726
130410800,Mount Vernon SD 80,Mr. Ryan H Swan,618-244-8080,http://www.mtv80.org,Mount Vernon,Jefferson,P-8,2710 North St,62864 2317
130410820,Bethel SD 82,Mr. Charley Cass,618-244-8095,https://www.bethelschool.net,Mount Vernon,Jefferson,P-8,1201 Bethel Rd,62864 7231
130410990,Farrington CCSD 99,Jamey Hodges,618-755-4414,https://www.farrington99.net/,Bluford,Jefferson,K-8,20941 E Divide Rd,62814 2402
130411780,Spring Garden Community Consolidated School District 178,Dr. Tammy Beckham,618-244-8070,,Mount Vernon,Jefferson,K-8,14975 E Bakerville Rd,62864 7100
130412010,Mt Vernon Twp HSD 201,Mr. Chad LeCrone,618-244-3700,http://www.mvths.org,Mount Vernon,Jefferson,9-12,11101 N Wells Bypass Rd,62864 6588
130412090,Woodlawn Unit School District 209,Mr. Eric Helbig,618-735-2631,,Woodlawn,Jefferson,P-12,300 N Central St,62898 1136
130413180,Bluford Unit School District 318,Dr. Adam Cross,618-732-8242,,Bluford,Jefferson,K-12,901 6th St,62814 1418
130580010,Raccoon Cons SD 1,Mrs. Misty Johannes,618-532-7329,http://www.raccoonschool.org/,Centralia,Marion,P-8,3601 State Route 161,62801 9621
130580020,Kell Cons SD 2,Patrick Keeney,618-822-6234,,Kell,Marion,K-8,207 N Johnson St,62853 1637
130580070,Iuka CCSD 7,Mr. Derick Vincent,618-323-6233,http://www.iukaschool.com,Iuka,Marion,P-8,405 S Main St,62849 1011
130580100,Selmaville CCSD 10,Mrs. Brittany Boldt,618-548-2416,http://www.selmaville.com,Salem,Marion,P-8,3185 Selmaville Rd,62881 6603
130581000,Patoka CUSD 100,Justin Venhaus,618-432-5440,http://www.patokaschool.com,Patoka,Marion,P-12,1220 Kinoka Rd,62875 1300
130581110,Salem SD 111,Dr. Leslie Foppe,618-548-7702,http://www.salem111.com,Salem,Marion,P-8,1300 Bobcat Cir,62881 4274
130581330,Central City SD 133,Mr. Jordan Queen,618-532-9521,http://www.ccs133.com,Centralia,Marion,P-8,129 Douglas St,62801 2129
130581350,Centralia SD 135,Christina Becker,618-532-1907,http://www.ccs135.com,Centralia,Marion,P-8,400 S Elm St,62801 3910
130582000,Centralia HSD 200,Chuck Lane,618-532-7391,,Centralia,Marion,9-12,2100 E Calumet St,62801 6511
130584010,South Central CUD 401,Mr. Kerry Herdes,618-547-3414,http://www.southcentralschools.org,Kinmundy,Marion,P-12,501 S Madison St,62854 2464
130585010,Sandoval CUSD 501,Mr. Matt Dannaman,618-247-3233,http://sandoval501.org,Sandoval,Marion,P-12,859 W Missouri Ave,62882 1031
130586000,Salem CHSD 600,Dr. Brad Detering,618-548-0727,http://www.salemhigh.com,Salem,Marion,9-12,1200 N Broadway Ave,62881 4204
130587220,Odin PSD 722,Mr. Quinton  Marcum,618-740-4183,http://www.odinpublicschools.org,Odin,Marion,P-12,102 S Merritt St,62870 1112
130950010,Oakdale CCSD 1,Mr. Charles Peterson,618-329-5292,http://www.oakdalegs.org,Oakdale,Washington,K-8,280 E Main St,62268 3116
130950100,West Washington Co CUD 10,Mr. Keith Senior,618-243-6454,http://www.okawville-k12.org,Okawville,Washington,K-12,PO Box 27,62271 0027
130950110,Irvington CCSD 11,Mrs. Tiffany Delaney,618-249-6439,http://irvingtongradeschool.com,Irvington,Washington,K-8,PO Box 130,62848 0130
130950150,Ashley CCSD 15,Mr. Brian Hodge,618-485-6611,http://www.ashleyccsd15.org,Ashley,Washington,P-8,450 N Third St,62808 1259
130950490,Nashville CCSD 49,Mr. Michael Brink,618-327-3055,http://www.nashville49.org,Nashville,Washington,P-8,750 E Gorman St,62263 2007
130950990,Nashville CHSD 99,Mr. Brad R Turner,618-327-8286,http://www.nashville-k12.org,Nashville,Washington,9-12,1300 S Mill St,62263 2083
150162990,Chicago Public Schools District 299,Dr. Macquline  King,773-553-2747,http://www.cps.k12.il.us,Chicago,Cook,P-12,42 W Madison St 2nd Flr,60602 4413
160194240,Genoa Kingston CUSD 424,Dr. Chad M Wagner,815-784-6222,http://www.gkschools.org,Genoa,Dekalb,P-12,980 Park Ave,60135 1423
160194250,Indian Creek CUSD 425,Mr. Chad Willis,815-824-2197,http://www.indiancreekschools.org,Shabbona,Dekalb,P-12,506 S Shabbona Rd,60550 9784
160194260,Hiawatha CUSD 426,Mr. Jared Poynter,815-522-6676,http://www.hiawatha426..org,Kirkland,Dekalb,P-12,PO Box 428,60146 0428
160194270,Sycamore CUSD 427,Mr. Nicholas Reineck,815-899-8103,http://syc427.org,Sycamore,Dekalb,P-12,1947 Bethany Rd,60178 3138
160194280,DeKalb CUSD 428,Dr. Minerva Garcia Sanchez,815-754-2350,https://www.dist428.org/,Dekalb,Dekalb,P-12,901 S 4Th St,60115 4411
160194290,Hinckley Big Rock CUSD 429,Dr. Jessica Sonntag,815-286-7578,https://www.hbr429.org,Hinckley,Dekalb,P-12,700 E Lincoln Ave,60520 9502
160194300,Sandwich CUSD 430,Mr. Ryan J Janisch,815-786-2187,http://www.sandwich430.org,Sandwich,Dekalb,P-12,720 S Wells St,60548 2449
160194320,Somonauk CUSD 432,Mr. Jay Streicher,815-498-2314,http://www.somonauk.net,Somonauk,Dekalb,P-12,501 W Market St,60552 9794
170200150,Clinton CUSD 15,Mr. Drew Goebel,217-935-8321,http://www.cusd15.org,Clinton,Dewitt,P-12,1210 State Route 54W,61727 2302
170200180,Blue Ridge CUSD 18,Mr. Ryan Peyton,309-928-9141,http://www.blueridge18.org,Farmer City,Dewitt,P-12,411 N John St,61842 1159
170530050,Woodland CUSD 5,Dr. Tim Truesdale,815-672-5974,http://www.woodland5.net/,Streator,Livingston,P-12,5800 E 3000 North Rd,61364 8881
17053006J,Tri Point CUSD 6-J,Mr. Jay Bennett,815-253-6299,http://www.tripointschools.org,Kempton,Livingston,P-12,PO Box 128,60946 0128
170530080,Prairie Central CUSD 8,Mr. Brian Quam,815-692-2504,,Fairbury,Livingston,P-12,605 N 7th St,61739 1300
170530740,Flanagan-Cornell Dist 74,Mr. Jeremy Heck,815-796-2233,http://www.fc74.org,Flanagan,Livingston,P-12,202 E Falcon Hwy,61740 7503
170530900,Pontiac Twp HSD 90,Dr. Ryan McGuckin,815-844-6113,http://www.pontiac90.org,Pontiac,Livingston,9-12,1100 E Indiana Ave,61764 1204
170532300,Dwight Twp HSD 230,Mr. Josh DeLong,815-584-6216,http://www.dwight.k12.il.us,Dwight,Livingston,9-12,801 S Franklin St,60420 1339
170532320,Dwight Common SD 232,Mr. Josh DeLong,815-584-6216,http://www.dwight.k12.il.us,Dwight,Livingston,P-8,801 S Franklin St,60420 1339
170534250,Rooks Creek CCSD 425,Mr. Todd W Bean,815-743-5346,http://www.rookscreek.k12.il.us,Graymont,Livingston,K-8,PO Box 117,61743 0117
170534260,Cornell CCSD 426,Ms. Elisa Palmer,815-358-2216,http://cornellgradeschool.org,Cornell,Livingston,K-8,300 N 7th St,61319 9282
170534290,Pontiac CCSD 429,Mr. Mike Weaver,815-842-1533,http://www.pontiac429.org,Pontiac,Livingston,P-8,600 N Morrow St,61764 1451
170534350,Odell CCSD 435,Mr. Mark A Hettmansberger,815-998-2272,http://www.odellschool.com,Odell,Livingston,P-8,203 N East St,60460 9602
170534380,Saunemin CCSD 438,Mr. Gary Doughan,815-832-4421,http://www.saunemin.org,Saunemin,Livingston,P-8,39 Main St,61769 6110
170540210,Hartsburg Emden CUSD 21,Mr. Joe Yurko,217-642-5244,http://logan.k12.il.us/hartem,Hartsburg,Logan,K-12,400 W Front St,62643 7325
170540230,Mt Pulaski CUSD 23,Mr. Jason Spang,217-792-7222,http://www.mtpulaski.k12.il.us,Mount Pulaski,Logan,P-12,509 E Chestnut St,62548 1008
170540270,Lincoln ESD 27,Mr. Kent D Froebe,217-732-2522,http://www.lincoln27.com,Lincoln,Logan,P-8,304 8th St,62656 2658
170540610,Chester-East Lincoln CCSD 61,Mrs. Laura Irwin,217-732-4136,https://www.cel61.com,Lincoln,Logan,P-8,1300 1500th St,62656 5127
170540880,New Holland-Middletown ED 88,Mrs. Candi Shaver,217-445-2421,http://www.nhm88.com,Middletown,Logan,K-8,75 1250th St,62666 9734
170540920,West Lincoln-Broadwell ESD 92,Mrs. Heather D Baker,217-732-2630,http://www.wlb92.org,Lincoln,Logan,P-8,2695 Woodlawn Rd,62656 9632
170544040,Lincoln CHSD 404,Mr. Dwight Stricklin,217-732-4131,http://www.lchs.k12.il.us,Lincoln,Logan,9-12,1000 Railer Way,62656 3180
170640020,LeRoy CUSD 2,Jeff Baughman,309-962-4211,http://www.leroyk12.org,Le Roy,McLean,P-12,805 N Barnett St,61752 1221
170640030,Tri Valley CUSD 3,Mr. Benjamin Derges,309-378-2351,http://www.tri-valley3.org,Downs,McLean,P-12,410 E Washington St,61736 9380
170640040,Heyworth CUSD 4,Dr. Lisa Taylor,309-473-3727,http://www.husd4.org,Heyworth,McLean,P-12,308 W Cleveland St,61745 9337
170640050,McLean County USD 5,Dr. Kristen Kendrick Weikle,309-557-4400,http://www.unit5.org,Normal,McLean,P-12,1809 Hovey Ave,61761 4315
170640070,Lexington CUSD 7,Mr. Paul Deters,309-365-4141,http://www.lexington.k12.il.us,Lexington,McLean,P-12,100 E Wall St,61753 1462
170640160,Olympia CUSD 16,Laura ODonnell,309-379-6011,http://www.olympia.org,Stanford,McLean,P-12,903 E 800 North Rd,61774 9612
170640190,Ridgeview CUSD 19,Mr. Erik R Young,309-723-5111,http://www.ridgeview19.org,Colfax,McLean,P-12,300 S Harrison St,61728 9216
170640870,Bloomington SD 87,Dr. David Mouser,309-827-6031,http://www.district87.org,Bloomington,McLean,P-12,300 E Monroe St,61701 4028
190220020,Bensenville SD 2,Dr. Katherine McCluskey,630-766-5940,http://www.bsd2.org,Bensenville,Dupage,P-8,210 S Church Rd,60106 2303
190220040,Addison SD 4,Dr. Nick Sutton,630-458-2425,http://www.asd4.org,Addison,Dupage,P-8,222 N JF Kennedy Dr,60101 6602
190220070,Wood Dale SD 7,Dr. Shannon  M Dudek,630-595-9510,http://www.wd7.org,Wood Dale,Dupage,P-8,543 N Wood Dale Rd,60191 1535
190220100,Itasca SD 10,Mr. Craig E Benes,630-773-1232,http://www.itasca10.org,Itasca,Dupage,P-8,200 N Maple St,60143 1722
190220110,Medinah SD 11,Dr. Susan Redell,630-893-3737,http://www.medinah11.org,Roselle,Dupage,K-8,700 E Granville Ave,60172 1406
190220120,Roselle SD 12,Dr. Mary Henderson,630-529-2091,https://www.sd12.org/,Roselle,Dupage,P-8,100 E Walnut St,60172 2242
190220130,Bloomingdale SD 13,Dr. Jon Bartelt,630-671-5035,http://www.sd13.org,Bloomingdale,Dupage,P-8,164 Euclid Ave,60108 1634
190220150,Marquardt SD 15,Ms. Lucilla Davila,630-469-7615,,Glendale Heights,Dupage,P-8,1860 Glen Ellyn Rd,60139 2261
190220160,Queen Bee SD 16,Dr. Joseph R Williams,630-260-6110,http://www.queenbee16.org,Glendale Heights,Dupage,P-8,1560 Bloomingdale Rd,60139 2734
190220200,Keeneyville SD 20,Dr. Omar Castillo,630-894-4606,http://www.esd20.org,Hanover Park,Dupage,P-8,5540 Arlington Dr E,60133 5569
190220250,Benjamin SD 25,Dr. Patrick McGill,630-876-7800,http://www.bendist25.org,West Chicago,Dupage,P-8,28W250 Saint Charles Rd,60185 1454
190220330,West Chicago ESD 33,Ms. Kristina Davis,630-293-6000,http://wego33.org,West Chicago,Dupage,P-8,312 E Forest Ave,60185 3528
190220340,Winfield SD 34,Dr. Matt Rich,630-909-4900,http://www.winfield34.org,Winfield,Dupage,P-8,0S150 Winfield Rd,60190 1266
190220410,Glen Ellyn SD 41,Dr. Jeffrey McHugh,630-790-6400,http://www.d41.org,Glen Ellyn,Dupage,P-8,793 N Main St,60137 3900
190220440,Lombard SD 44,Mr. Theodore Stec,630-827-4400,http://www.sd44.org,Lombard,Dupage,P-8,150 W Madison St,60148 3317
190220450,SD 45 DuPage County,Dr. Brian Graber,630-516-7700,http://www.d45.org,Villa Park,Dupage,P-8,255 W Vermont St,60181 1943
190220480,Salt Creek SD 48,Dr. Amy M Zaher,630-279-8400,http://www.saltcreek48.org,Villa Park,Dupage,P-8,1110 S Villa Ave,60181 3326
190220530,Butler SD 53,Dr. Paul OMalley,630-573-2887,http://www.butler53.com,Oak Brook,Dupage,P-8,2801 York Rd,60523 2334
190220580,Downers Grove GSD 58,Dr. Kevin Russell,630-719-5800,http://www.dg58.org,Downers Grove,Dupage,P-8,850 Curtiss St Ste 200,60515
190220600,Maercker SD 60,Dr. Sean Nugent,630-515-4840,http://www.maercker.org,Westmont,Dupage,P-8,1 S Cass Ave Ste 202,60559 1893
190220610,Darien SD 61,Dr. Robert Langman,630-968-7505,http://www.darien61.org,Darien,Dupage,P-8,7414 S Cass Ave,60561 3608
190220620,Gower SD 62,Dr. Victor Simon III,630-986-5383,http://www.gower62.com,Willowbrook,Dupage,P-8,7700 Clarendon Hills Rd,60527 2426
190220630,Cass SD 63,Mr. Mark Cross,331-481-4000,http://www.cassd63.org,Darien,Dupage,P-8,8502 Bailey Rd,60561 5333
190220660,Center Cass SD 66,Dr. Andrew Wise,630-783-5155,http://www.ccsd66.org,Downers Grove,Dupage,P-8,699 Plainfield Rd,60516 5057
190220680,Woodridge SD 68,Dr. Patrick Broncato,630-795-6800,http://www.woodridge68.org,Woodridge,Dupage,P-8,7925 Janes Ave,60517 3821
190220860,Hinsdale Twp HSD 86,Dr. Michael Lach,630-655-6110,http://d86.hinsdale86.org,Hinsdale,Dupage,9-12,5500 S Grant St,60521 4578
190220870,Glenbard Twp HSD 87,Jessica Santee,630-469-9100,http://www.glenbard87.org,Glen Ellyn,Dupage,9-12,596 Crescent Blvd,60137 4200
190220880,DuPage HSD 88,Dr. Jean Barbanente,630-530-3980,,Addison,Dupage,9-12,2 Friendship Plz,60101 2787
190220890,CCSD 89,Mr. Douglas Eccarius,630-469-8900,,Glen Ellyn,Dupage,P-8,22W600 Butterfield Rd,60137 6901
190220930,CCSD 93,Dr. David H Hill,630-539-3000,http://www.ccsd93.com/pages/CCSD93,Bloomingdale,Dupage,P-8,230 Covington Dr,60108 3106
190220940,CHSD 94,Dr. Kurt Johansen,630-876-6210,http://www.d94.org,West Chicago,Dupage,9-12,326 Joliet St,60185 3142
190220990,CHSD 99,Dr. Henry Thiele,630-795-7100,http://www.csd99.org,Downers Grove,Dupage,9-12,6301 Springside Ave,60516 2488
190221000,Fenton CHSD 100,Dr. Samuel Bentsen,630-860-6281,http://www.fenton100.org,Bensenville,Dupage,9-12,1000 W Green St,60106 2008
190221080,Lake Park CHSD 108,Dr. Michael Wojtowicz,630-529-4500,https://www.lphs.org,Roselle,Dupage,9-12,590 S Medinah Rd,60172 1978
190221800,CCSD 180,Dr. Thomas Schneider,630-734-6600,http://www.ccsd180.org,Burr Ridge,Dupage,P-8,15W451 91st St,60527 6379
190221810,Hinsdale CCSD 181,Dr. Hector Garcia,630-861-4900,http://www.d181.org,Hinsdale,Dupage,P-8,133 E Ogden Ave,60521 3551
190222000,CUSD 200,Dr. Jeffrey Schuler,630-682-2002,http://www.cusd200.org,Wheaton,Dupage,P-12,130 W Park Ave,60189 6460
190222010,CUSD 201,Mr. Jack Baldermann,630-468-8004,http://www.cusd201.org,Westmont,Dupage,P-12,133 S Grant St,60559 1907
190222020,Lisle CUSD 202,Dr. Keith Filipiak,630-493-8000,http://lisle202.org,Lisle,Dupage,P-12,925 Burlington Ave,60532 1889
190222030,Naperville CUSD 203,Mr. Daniel M Bridges,630-420-6311,http://www.naperville203.org,Naperville,Dupage,P-12,203 W Hillside Rd,60540 6500
190222040,Indian Prairie CUSD 204,Dr. Adrian Talley,630-375-3000,http://www.ipsd.org,Aurora,Dupage,P-12,780 Shoreline Dr,60504 6192
190222050,Elmhurst SD 205,Dr. Keisha Campbell,630-834-4530,http://www.elmhurst205.org,Elmhurst,Dupage,P-12,162 S York St,60126 3417
200240010,Edwards County CUSD 1,Mr. David Lee Cowger,618-445-2814,http://www.edwardscountyschools.org,Albion,Edwards,P-12,361 W Main St # 100,62806 1011
200300070,Gallatin CUSD 7,Dr. Judy R Kaegi,618-272-3821,http://www.roe20.k12.il.us,Junction,Gallatin,P-12,5175 Highway 13,62954 2101
200330100,Hamilton Co CUSD 10,Dr. Travis McCollum,618-643-2328,http://www.unit10.com,Mc Leansboro,Hamilton,P-12,PO Box 369,62859 0369
200350010,Hardin County CUSD 1,Mr. Andreas Edmondson,618-287-2411,http://www.hardin.k12.il.us,Elizabethtown,Hardin,P-12,PO Box 218,62931 0218
200760010,Pope Co CUD 1,Mr. Ryan Fritch,618-683-2301,http://www.popek12.org,Golconda,Pope,P-12,125 State Highway 146 W,62938 4203
200830010,Galatia CUSD 1,Mr. Shain Crank,618-297-4570,http:www.galatiak12.org,Galatia,Saline,P-12,200 N Hickory St,62935 1002
200830020,Carrier Mills-Stonefort CUSD 2,Mr. Bryce K Jerrell,618-994-2392,http://www.cmsfcats.org,Carrier Mills,Saline,P-12,7071 US 45 S,62917 1230
200830030,Harrisburg CUSD 3,Dr. Amy Dixon,618-253-7637,http://www.hbg.saline.k12.il.us,Harrisburg,Saline,P-12,411 W Poplar St,62946 1425
200830040,Eldorado CUSD 4,Mr. Cody Cusic,618-273-6394,http://www.eld4.org,Eldorado,Saline,P-12,2200A Illinois Ave,62930 1851
200930170,Allendale CCSD 17,Mr. Robert L Bowser,618-299-3161,https://www.allendaleschool.net/,Allendale,Wabash,P-8,PO Box 130,62410 0130
200933480,Wabash CUSD 348,Dr. Chuck Bleyer,618-262-4181,http://www.wabash348.com,Mount Carmel,Wabash,P-12,218 W 13th St,62863 1243
200960060,New Hope CCSD 6,Mrs. Britany D Pope,618-842-3296,http://www.newhopepanthers.com,Fairfield,Wayne,P-8,1804 County Road 445 N,62837 2973
200960140,Geff CCSD 14,Dr. Michelle Hassan,618-516-8004,,Geff,Wayne,K-8,201 E Lafayette St,62842 1001
200960170,Jasper CCSD 17,Mr. Matt R Shreve,618-842-3048,http://www.jasperpolecats.com,Fairfield,Wayne,K-8,2030 County Road 1020 N,62837 2869
200961000,Wayne City CUSD 100,Nicole Henson,618-895-3103,http://www.waynecity100.org,Wayne City,Wayne,P-12,408 E Mill St,62895 0457
200961120,Fairfield PSD 112,Mrs. Kristina Gardner,618-842-6501,http://www.fairfieldcolts.com,Fairfield,Wayne,P-8,806 N 1st St,62837 2458
200962000,North Wayne CUSD 200,Mr. Adam Ellis,618-673-2151,http://www.roe20.12.il.us,Cisne,Wayne,P-12,PO Box 235,62823 0235
200962250,Fairfield Comm H S Dist 225,Mr. Robert Wells,618-842-2649,http://www.fchsmules.com,Fairfield,Wayne,9-12,300 W King St,62837 1710
200970010,Grayville CUSD 1,Mr. Eric McCollum,618-375-7114,http://www.gcusd.com,Grayville,White,P-12,728 W North St,62844 1338
200970030,Norris City-Omaha-Enfield CUSD 3,Mr. Matt Vollman,618-378-3222,http://www.ncoehs.white.k12.il.us,Norris City,White,P-12,PO Box 399,62869 0399
200970050,Carmi-White County CUSD 5,Mr. Jarrod Newell,618-382-2341,http://www.carmischools.org,Carmi,White,P-12,211 W Robinson St,62821 1640
210280470,Benton CCSD 47,Dr. Stephen C Smith,618-439-3136,http://www.benton47.org,Benton,Franklin,P-8,1000 Forrest St,62812 3337
210280910,Akin CCSD 91,Dr. Tammy McCollum,618-627-2180,http://www.akin91.com,Akin,Franklin,K-8,21962 Akin Blacktop,62890 1304
210280990,Christopher USD 99,Mrs. Kashia B Cook,618-724-9461,,Christopher,Franklin,P-12,1 Bearcat Dr,62822 1099
210281030,Benton Cons HSD 103,Mr. Benjamin Johnson,618-439-6415,http://www.bentonhighschool.org,Benton,Franklin,9-12,511 E Main St,62812 2522
210281150,Ewing Northern CCSD 115,Mrs. Kristin Ing,618-629-2181,http://ewinggradeschool.org,Ewing,Franklin,P-8,51 N Main St,62836 1437
210281680,Frankfort CUSD 168,Mr. Robert Matthew Donkin,618-937-2421,http://www.wfschools.org,West Frankfort,Franklin,P-12,900 N Cherry St,62896 1670
210281740,Thompsonville CUSD 174,Lindsay Robinson,618-627-2446,http://www.tvilleschools.org,Thompsonville,Franklin,K-12,21191 Shawneetown Rd,62890 1035
210281880,Zeigler-Royalton CUSD 188,Mr. Quent Hamilton,618-596-5841,http://www.zr188.org,Zeigler,Franklin,P-12,PO Box 38,62999 0038
210281960,Sesser-Valier CUSD 196,Dr. Jason D Henry,618-625-5105,http://www.sv196.org,Sesser,Franklin,P-12,4626 State Highway 154,62884 2277
210440010,Goreville CUD 1,Mr. Jonathan  Green,618-995-9831,http://www.gorevilleschools.com,Goreville,Johnson,P-12,201 S Ferne Clyffe Rd,62939 2698
210440320,New Simpson Hill SD 32,Ms. Rebecca Yandell,618-658-8536,http://www.newsimpsonhill.com,Tunnel Hill,Johnson,P-8,95 Tunnel Hill Rd,62972 3200
210440430,Buncombe Cons SD 43,Mr. Jamie Kerley,618-658-8830,,Buncombe,Johnson,K-8,PO Box 40,62912 0040
210440550,Vienna SD 55,Dr. Greg Frehner,618-658-8638,http://www.viennagradeschool.com,Vienna,Johnson,P-8,PO Box 427,62995 0427
210440640,Cypress SD 64,Mrs. Kimberly Shoemaker,618-657-2525,http://cypressgradeschool.org,Cypress,Johnson,P-8,4580 Mount Pisgah Rd,62923 2139
210441330,Vienna HSD 133,Dr. Joshua W Stafford,618-658-4461,http://www.viennahighschool.com/,Vienna,Johnson,9-12,601 N 1st St,62995 1603
210610010,Massac UD 1,Mr. Jason Troy Hayes,618-524-9376,http://massac.org,Metropolis,Massac,P-12,2939 Old Marion Rd,62960
210610380,Joppa-Maple Grove UD 38,Greg Goins,618-543-7589,http://www.joppa38.com,Joppa,Massac,P-12,PO Box 10,62953 0010
211000010,Johnston City CUSD 1,Mr. Josh Pietrantoni,618-983-8021,http://www.jcindians.org,Johnston City,Williamson,P-12,PO Box 147,62951 0147
211000020,Marion CUSD 2,Mrs. Rebecca Moss,618-993-2321,http://www.marionunit2.org,Marion,Williamson,P-12,1700 W Cherry St,62959 1212
211000030,Crab Orchard CUSD 3,Mr. Sy Stone,618-982-2181,http://www.cocusd3.org,Marion,Williamson,P-12,19189 Bailey St,62959 7355
211000040,Herrin CUSD 4,Mr. Nathaniel Wilson,618-988-8024,http://www.herrinschools.org,Herrin,Williamson,P-12,500 N 10th St,62948 3335
211000050,Carterville CUSD 5,Mrs. Sarah Barnstable,618-985-4826,http://www.cartervillelions.com,Carterville,Williamson,P-12,200 W Plaza Dr,62918 1998
240320010,Coal City CUSD 1,Mr. Christopher Spencer,815-634-2287,http://www.coalcity.k12.il.us,Coal City,Grundy,P-12,550 S Carbon Hill Rd,60416 1663
24032002C,Mazon-Verona-Kinsman ESD 2C,Dr. Anthony V. DiNello,815-448-2200,,Mazon,Grundy,P-8,1013 North St,60444 6236
24032024C,Nettle Creek CCSD 24C,Mr. Merle Siefken,815-942-0511,http://www.nettlecreek.org,Morris,Grundy,K-8,8820 Scott School Rd,60450 8425
240320540,Morris SD 54,Dr. Marie K Stover,815-942-0056,http://dist54.mornet.org,Morris,Grundy,P-8,54 White Oak Dr,60450 3614
24032060C,Saratoga CCSD 60C,Mrs. Ashley Ringler,815-942-2128,http://www.sd60c.org,Morris,Grundy,P-8,4040 N Division St,60450 9357
24032072C,Gardner CCSD 72C,Mrs. Melanie Elias,815-237-2313,http://www.ggs72.org,Gardner,Grundy,P-8,598 N Elm St,60424 7050
240320730,Gardner S Wilmington Twp HSD 73,Mrs. Susan Avery,815-237-2176,http://www.gswhs73.org,Gardner,Grundy,9-12,500 E Main St,60424 6316
240320740,South Wilmington CCSD 74,Dr. Shannon Lynn Hamm,815-237-2281,http://roe.grundy.k12.il.us,South Wilmington,Grundy,K-8,PO Box 459,60474 0459
240320750,Braceville SD 75,Mrs. Susan Avery,815-237-8040,http://bes75.us,Braceville,Grundy,K-8,209 N Mitchell St,60407 9068
240321010,Morris CHSD 101,Dr. Craig  Ortiz,815-941-5326,http://morrishs.org,Morris,Grundy,9-12,1000 Union St,60450 1234
240321110,Minooka CHSD 111,Dr. Robert Schiffbauer,815-521-4311,http://www.mchs.net,Minooka,Grundy,9-12,201 S Wabena Ave,60447 8715
240322010,Minooka CCSD 201,Mrs. Rachel Kinder,815-467-3127,http://www.min201.org,Minooka,Grundy,P-8,PO Box 467,60447 0467
240470180,Newark CHSD 18,Mr. Tim Ulrich,815-695-5164,http://www.newarkhs.k12.il.us,Newark,Kendall,9-12,413 Chicago Rd,60541 8900
240470660,Newark CCSD 66,Mrs. Demetra Turman,815-695-5143,http://www.ngsd66.org,Newark,Kendall,P-8,503 Chicago Rd,60541 9501
240470880,Plano CUSD 88,Dr. Tracy Thurwanger,630-552-8978,http://www.plano88.org,Plano,Kendall,P-12,800 S Hale St,60545 2000
240470900,Lisbon CCSD 90,Mr. Christopher D Mehochko,815-736-6324,http://www.lisbon.k12.il.us,Newark,Kendall,K-8,127 S Canal St,60541 9776
240471150,Yorkville CUSD 115,Dr. Matthew Zediker,630-553-4382,http://www.y115.org,Yorkville,Kendall,P-12,800 Game Farm Rd,60560 1133
240473080,CUSD 308,Dr. Andalib Khelghati,630-636-3080,http://www.sd308.org,Oswego,Kendall,P-12,4175 State Route 71,60543 8340
260290010,Astoria CUSD 1,Dr. Tori Lindeman,309-329-2156,http://www.acusd1.org,Astoria,Fulton,P-12,402 N Jefferson St,61501 8670
260290020,V I T CUSD 2,Mr. Matthew Ryan Klaska,309-758-5138,http://www.vit2.org,Table Grove,Fulton,P-12,1502 E US Highway 136,61482 9612
260290030,CUSD 3 Fulton County,Dr. Jonathan David Hill,309-785-5021,,Cuba,Fulton,P-12,652 E Main St,61427 5211
260290040,Spoon River Valley CUSD 4,Mr. Christopher D Janssen,309-778-2204,http://www.spoonrivervalley.us,London Mills,Fulton,P-12,35265 N IL Route 97,61544 9312
260290660,Canton Union SD 66,Mr. Tad A DeRenzy,309-647-9411,http://www.cantonusd.org,Canton,Fulton,P-12,20 W Walnut St,61520 2526
260290970,Lewistown CUSD 97,Mr. Jeff Braun,309-547-5826,,Lewistown,Fulton,P-12,15501 E Avenue L,61542 9454
260343070,Illini West H S Dist 307,Mr. Jay Harnack,217-357-9607,http://www.illiniwest.org,Carthage,Hancock,9-12,PO Box 298,62321 0298
260343160,Warsaw CUSD 316,Katrina Nixon,217-256-4281,http://warsawschool.com,Warsaw,Hancock,"P-6,9-12",340 S 11th St,62379 1431
260343170,Carthage ESD 317,Dustin Day,217-357-3922,http://www.cesd317.org,Carthage,Hancock,P-8,210 S Adams St,62321 1420
260343250,Nauvoo-Colusa CUSD 325,Mr. Mark Scott,866-453-2600,http://www.nauvoo-colusa.com,Nauvoo,Hancock,P-8,2461 N State Highway 96,62354 2200
260343270,Dallas ESD 327,Alissa Tucker,217-852-3201,http://www.dcbulldogs.com,Dallas City,Hancock,P-8,921 Creamery Hill Rd,62330 1216
260343280,Hamilton CCSD 328,Mr. Jason Church,866-332-3880,http://www.hhs328.com,Hamilton,Hancock,P-12,1830 Broadway St,62341 1705
260343370,Southeastern CUSD 337,Mrs. Tecia Lantz,217-392-2172,http://www.southeastern337.com,Augusta,Hancock,P-12,PO Box 215,62311 0215
260343470,La Harpe CSD 347,Dr. Janet Lynn Gladu,217-659-7739,http://www.laharpeeagles.org/,La Harpe,Hancock,P-8,404 W Main St,61450 9280
260621030,West Prairie CUSD 103,Mrs. Paula Markey,309-776-3180,http://www.wp103.org,Colchester,McDonough,P-12,204 S Hun St,62326 1129
260621700,Bushnell Prairie City CUSD 170,Mr. Bob Gound,309-772-9461,http://bpcschools.org,Bushnell,McDonough,P-12,845 Walnut St,61422 1253
260621850,Macomb CUSD 185,Dr. Patrick M Twomey,309-833-4161,http://www.macomb185.org,Macomb,McDonough,P-12,323 W Washington St,61455 2118
260850050,Schuyler-Industry CUSD 5,Dr. Beau Fretueg,217-322-4311,http://www.sid5.com,Rushville,Schuyler,P-12,740 Maple Ave,62681 1048
280060170,Ohio CCSD 17,Mrs. Jennifer Donnelly,815-376-4414,http://ohiocommunityschooldistricts.com/,Ohio,Bureau,K-8,PO Box 478,61349 0478
280060840,Malden CCSD 84,Mr. Michael John Patterson,815-643-2436,http://maldengradeschool.org/administration/index.htm,Malden,Bureau,P-8,PO Box 216,61337 0216
280060940,Ladd CCSD 94,Ms. Dana K Carver,815-894-2363,http://www.laddccsd94.com,Ladd,Bureau,K-8,232 E Cleveland St,61329 9741
280060980,Dalzell SD 98,Mr. Richard J Craven,815-663-8821,,Dalzell,Bureau,K-8,307 Chestnut St,61320 9717
280060990,Spring Valley CCSD 99,Mrs. Julie DeFore,815-664-4242,http://www.sv99.org,Spring Valley,Bureau,P-8,999 N Strong Ave,61362 1238
280061030,DePue USD 103,Dr. Brandi AndersonMaier,815-447-2121,http://www.depueschools.org,DePue,Bureau,P-12,PO Box 800,61322 0800
280061150,Princeton ESD 115,Mr. JD Orwig,815-875-3162,http://www.princeton115schools.org,Princeton,Bureau,P-8,506 E Dover Rd,61356 9552
280063030,La Moille CUSD 303,Mr. Tom Jeppson,815-490-7086,https://home.lamoilleschools.org,La Moille,Bureau,K-12,801 S Main St,61330 9499
280063400,Bureau Valley CUSD 340,Mr. Jason Stabler,815-445-3101,http://www.bv340.com,Manlius,Bureau,P-12,PO Box 289,61338 0289
280065000,Princeton HSD 500,Mr. Kirk Haring,815-875-3308,http://www.phs-il.org,Princeton,Bureau,9-12,103 S Euclid Ave,61356 1843
280065020,Hall HSD 502,Mr. Jesse Brandt,815-664-2100,https://www.hallhighschool502.com/,Spring Valley,Bureau,9-12,800 W Erie St,61362 1761
280065050,Ohio CHSD 505,Mrs. Jennifer Donnelly,815-376-2934,http://ohiocommunityschooldistricts.com/,Ohio,Bureau,9-12,PO Box 478,61349 0478
280371900,Colona SD 190,Dr. Mike Ruff,309-792-1232,http://www.csd190.org,Colona,Henry,P-8,700 1st St,61241 9028
280372230,Orion CUSD 223,Mr. Joe A Blessman,309-526-3388,http://www.orionschools.us,Orion,Henry,P-12,PO Box 189,61273 0189
280372240,Galva CUSD 224,Mr. Jerry Becker,309-932-2108,http://galva224.org,Galva,Henry,P-12,224 Morgan Rd,61434 1090
280372250,AlWood CUSD 225,Mr. Matthew Nordstrom,309-334-2719,http://www.alwood.net,Woodhull,Henry,P-12,301 E 5th Ave,61490 9684
280372260,Annawan CUSD 226,James R Bryan,309-935-6781,http://annawan226.org,Annawan,Henry,P-12,501 W South St,61234 9715
280372270,Cambridge CUSD 227,Mrs. Jenna Bibb,309-937-2144,http://www.district227.org/,Cambridge,Henry,P-12,300 S West St,61238 1430
280372280,Geneseo CUSD 228,Dr. Laura Delgado,309-945-0450,http://www.geneseoschools.org,Geneseo,Henry,P-12,648 N Chicago St,61254 1118
280372290,Kewanee CUSD 229,Mrs. Rebecca Baney,309-853-3341,http://kcud229.org,Kewanee,Henry,P-12,1001 N Main St,61443 1361
280372300,Wethersfield CUSD 230,Dr. Andy Brooks,309-853-4860,http://www.geese230.com,Kewanee,Henry,P-12,439 Willard St,61443 3717
280880010,Bradford CUSD 1,Mr. Chad Allen Gripp,309-897-2801,http://www.bradfordschool.net,Bradford,Stark,P-8,115 High St,61421 5087
280881000,Stark County CUSD 100,Mr. Brett Elliott,309-695-6123,http://www.stark100.com,Wyoming,Stark,P-12,300 W Van Buren St,61491 1172
300020010,Cairo USD 1,Mrs. Pamela Rizkallah,618-734-4102,http://www.cairoschooldistrict1.com,Cairo,Alexander,P-12,4201 Sycamore St,62914 1047
300020050,Egyptian CUSD 5,Mr. Brad Misner,618-776-5306,http://egyptianschool.com,Tamms,Alexander,P-12,20023 Diswood Rd,62988 3234
300390860,DeSoto Cons SD 86,Mr. Doug Corzine,618-867-2317,http://www.desoto86.org,De Soto,Jackson,P-8,311 Hurst Rd,62924 1228
300390950,Carbondale ESD 95,Ms. Janice Pavelonis,618-457-3591,http://www.ces95.org,Carbondale,Jackson,P-8,1150 E Grand Ave Ste 2,62901 3422
300391300,Giant City CCSD 130,Dr. Kristopher Mason,618-457-5391,http://www.gcs130.org,Carbondale,Jackson,P-8,1062 Boskydell Rd,62902 7743
300391400,Unity Point CCSD 140,Dr. Yaa Appiah-McNulty,618-529-4151,http://www.up140.org,Carbondale,Jackson,P-8,4033 S Illinois Ave,62903 8375
300391650,Carbondale CHSD 165,Dr. Daniel Booth,618-457-4722,http://www.cchs165.jacksn.k12.il.us,Carbondale,Jackson,9-12,330 S Giant City Rd,62902 5042
300391760,Trico CUSD 176,Mr. Larry Lovel,618-426-1111,http://www.edline.net/pages/trico_cusd_176,Campbell Hill,Jackson,P-12,PO Box 220,62916 0220
300391860,Murphysboro CUSD 186,Dr. Andrea Evers,618-684-3781,http://www.cusd186.org,Murphysboro,Jackson,P-12,593 Ava Rd,62966 4267
300391960,Elverado CUSD 196,Mr. Kevin Spain,618-568-1321,http://elv196.org,Elkville,Jackson,P-12,PO Box 130,62932 0130
300730050,Tamaroa School Dist 5,Ms. Erica Hicks,618-496-5513,http://tgs5.com,Tamaroa,Perry,P-8,PO Box 175,62888 0175
300730500,Pinckneyville SD 50,Mr. Brian Pasero,618-357-5161,http://www.jrpanther.com,Pinckneyville,Perry,P-8,301 W Mulberry St,62274 1370
300731010,Pinckneyville CHSD 101,Mr. Andrew Dagner,618-357-5013,http://www.pchspanthers.com,Pinckneyville,Perry,"P,9-12",600 E Water St,62274 1472
300732040,CCSD 204,Mr. Jerry Travelstead,618-357-2419,http://www.ccsd204.org,Pinckneyville,Perry,P-8,6067 State Route 154,62274 3414
300733000,Du Quoin CUSD 300,Mrs. Diana Rea,618-542-3856,http://www.duquoinschools.org,Du Quoin,Perry,P-12,845 E Jackson St,62832 3871
300771000,Century CUSD 100,Dr. Landon Sommer,618-845-3518,http://www.centuryschool100.com,Ullin,Pulaski,P-12,4721 Shawnee College Rd,62992 2201
300771010,Meridian CUSD 101,Dr. Lisa Thomas,618-342-6778,http://www.meridian101.com/,Mounds,Pulaski,P-12,1401 Mounds Rd,62964 2325
300910160,Lick Creek CCSD 16,Mrs. Jordan Suits,618-833-2545,https://lickcreekccsd.schoolinsites.com/,Buncombe,Union,P-8,7355 Lick Creek Rd,62912 3016
300910170,Cobden SUD 17,Mr. Edwin Lee Shoemate,618-893-2313,http://www.cobdenappleknockers.com,Cobden,Union,P-12,413 N Appleknocker St,62920 2121
300910370,Anna CCSD 37,Mr. Brent Boren,618-833-6812,http://www.anna37.com,Anna,Union,P-8,301 S Green St,62906 1126
300910430,County of Union Sch Dist No43,Mr. Kevin Westall,618-833-6651,http://www.jonesboro43.com,Jonesboro,Union,P-8,309 Cook Ave,62952 1118
300910660,Dongola USD 66,Dr. Paige Maginel,618-827-3841,http://www.dongolaschool.com,Dongola,Union,P-12,PO Box 190,62926 0190
300910810,Anna Jonesboro CHSD 81,Mr. Brett Detering,618-833-8421,http://aj81.net,Anna,Union,9-12,608 S Main St,62906 1247
300910840,Shawnee CUSD 84,Ms. Shelly Clover-Hill,618-833-5709,http://www.shawneedistrict84.com,Wolf Lake,Union,P-12,3365 State Hwy 3 N,62998 1157
310450460,SD U-46,Dr. Suzanne Johnson,847-888-5000,https://www.u-46.org,Elgin,Kane,P-12,355 E Chicago St,60120 6543
310451010,Batavia USD 101,Mr. Tom Kim,630-937-8834,http://www.bps101.net,Batavia,Kane,P-12,335 W Wilson St,60510 1948
310451290,Aurora West USD 129,Dr. Michael Smith,630-301-5000,http://www.sd129.org,Aurora,Kane,P-12,1877 W. Downer Pl,60506 7302
310451310,Aurora East USD 131,Dr. Robert Halverson,630-299-5554,http://www.d131.org,Aurora,Kane,P-12,310 Seminary Ave,60505 4768
310453000,CUSD 300,Dr. Martina Smith,847-551-8300,http://www.d300.org,Algonquin,Kane,P-12,2550 Harnish Dr,60102 6870
310453010,Central CUSD 301,Dr. Kyle Schumacher,847-464-6005,http://www.central301.net,Burlington,Kane,P-12,PO Box 396,60109 0396
310453020,Kaneland CUSD 302,Dr. Kurt Rohlwing,630-365-5111,http://www.kaneland.org,Maple Park,Kane,P-12,47W326 Keslinger Rd,60151 9720
310453030,St Charles CUSD 303,Dr. Paul Gordon,331-228-2000,http://www.d303.org,Saint Charles,Kane,P-12,201 S 7Th St,60174 2664
310453040,Geneva CUSD 304,Dr. Andrew J Barrett,630-463-3000,,Geneva,Kane,P-12,227 N 4th St,60134 1307
320380030,Donovan CUSD 3,Dr. Kristin Elliott,815-486-7398,http://www.donovanschools.org,Donovan,Iroquois,P-12,PO Box 186,60931 0186
320380040,Central CUSD 4,Dr. Christopher D Gibson,815-698-2212,http://www.cusd4.org,Ashkum,Iroquois,P-12,PO Box 158,60911 0158
320380060,Cissna Park CUSD 6,Mr. Timothy Simpson,815-457-2171,http://www.cpschool.org,Cissna Park,Iroquois,K-12,511 N 2nd St,60924 9734
320380090,Iroquois County CUSD 9,Dr. David Andriano,815-432-4931,http://www.watsekaschools.org/,Watseka,Iroquois,P-12,1411 W Lafayette St,60970 7655
320380100,Iroquois West CUSD 10,Mr. Trent Eshleman,815-265-4642,http://www.iwest.k12.il.us,Gilman,Iroquois,P-12,529 E 2Nd St,60938 1414
320381240,Milford Area Public Schools District 124,Mr. John Klaber,815-889-5176,https://maps124.org/,Milford,Iroquois,P-12,208 S Chicago St,60953 1234
320382490,Crescent Iroquois CUSD 249,Mr. Lucas Schroeder,815-683-2141,http://www.ccgshawks.net/,Crescent City,Iroquois,K-5,PO Box 190,60928 0190
320460010,Momence CUSD 1,Mr. Shannon M Anderson,815-472-3501,https://www.mcusd1.net/,Momence,Kankakee,P-12,400 N Pine St,60954 1158
320460020,Herscher CUSD 2,Dr. Richard S Decman,815-426-2162,http://www.hcusd2.org,Herscher,Kankakee,P-12,PO Box 504,60941 0504
320460050,Manteno CUSD 5,Mrs. Lisa Harrod,815-928-7000,http://www.manteno5.org,Manteno,Kankakee,P-12,84 N Oak St,60950 1522
320460060,Grant Park CUSD 6,Dr. John Palan,815-465-6013,http://www.grantparkdragons.org,Grant Park,Kankakee,P-12,PO Box 549,60940 0549
320460240,St. Anne Unit District 24,Mr. Charles Stegall,815-427-8190,,Saint Anne,Kankakee,P-12,100 W Dixie Hwy,60964
320460530,Bourbonnais SD 53,Dr. Adam Ehrman,815-929-5100,http://www.besd53.org,Bourbonnais,Kankakee,P-8,281 W John Casey Rd,60914 1392
320460610,Bradley SD 61,Mr. Chris Hammond,815-933-3371,http://www.bradleyschools.com,Bradley,Kankakee,P-8,111 N Crosswell Ave,60915 2091
320461110,Kankakee SD 111,Dr. Teresa A Lance,815-802-7700,http://www.kankakeeschooldistrict.org,Kankakee,Kankakee,P-12,240 Warren Ave,60901 4319
320462580,St George CCSD 258,Dr. Jay P Smith,815-802-3102,http://www.sg258.org,Bourbonnais,Kankakee,P-8,5200 E Center St,60914 4464
320462590,Pembroke CCSD 259,Dr. Genevra Walters,815-944-5448,http://psd259.org,Hopkins Park,Kankakee,P-8,PO Box 546,60944 0546
320463070,Bradley Bourbonnais CHSD 307,Dr. Matt Vosberg,815-937-3701,http://www.bbchs.org,Bradley,Kankakee,9-12,700 W North St,60915 1013
330362350,West Central CUSD 235,Stacey Day,309-627-2371,http://www.wc235.k12.il.us,Biggsville,Henderson,P-12,1514 US Route 34,61418 5012
330482020,Knoxville CUSD 202,Mr. Jeff Whitsitt,309-289-2328,https://bluebullets.org,Knoxville,Knox,P-12,809 E Main St,61448 1536
330482050,Galesburg CUSD 205,Dr. John Asplund,309-973-2000,http://www.galesburg205.org,Galesburg,Knox,P-12,940 W Fremont St,61401 2558
330482080,R O W V A CUSD 208,Dr. James Dunlap,309-483-3711,http://www.rowva.k12.il.us,Oneida,Knox,P-12,PO Box 69,61467 0069
330482100,Williamsfield CUSD 210,Mr. David Mills,309-639-2219,http://billtown.org,Williamsfield,Knox,P-12,325 W Kentucky Ave,61489 5479
330482760,Abingdon-Avon CUSD 276,Mr. William Walters,309-462-2301,,Abingdon,Knox,P-12,507 N Monroe St Ste 3,61410 1285
330664040,Mercer County School District 404,Mr. Alan Boucher,309-582-2238,http://www.mercerschools.org,Joy,Mercer,P-12,203 N Washington St,61260 7788
330942380,Monmouth-Roseville CUSD 238,Mr. Edward D Fletcher,309-734-4712,http://www.mr238.org,Monmouth,Warren,P-12,105 N E St,61462 3044
330943040,United CUSD 304,Thomas Hawkins,309-734-9413,http://www.u304.org,Monmouth,Warren,P-12,1905 100th St,61462 9221
340490010,Winthrop Harbor SD 1,Mr. Jeffrey McCartney,847-731-3085,http://www.whsd1.org,Winthrop Harbor,Lake,P-8,500 North Ave,60096 1186
340490030,Beach Park CCSD 3,Dr. Denise Wilcox,847-599-5070,http://bpd3.org,Beach Park,Lake,P-8,11315 W Wadsworth Rd,60099 3359
340490060,Zion ESD 6,Dr. Julious Lawson,847-872-5455,,Zion,Lake,P-8,2800 29th St,60099 3010
340490240,Millburn CCSD 24,Dr. Jason J Lind,847-356-8331,http://www.millburn24.net,Old Mill Creek,Lake,P-8,18550 W Millburn Rd,60083 9248
340490330,Emmons SD 33,Dr. Lynette  Zimmer,847-395-1105,http://www.emmons33.org,Antioch,Lake,K-8,24226 W Beach Grove Rd,60002 2234
340490340,Antioch CCSD 34,Mr. Aron Borowiak,847-838-8401,http://www.antioch34.com,Antioch,Lake,P-8,964 Spafford St,60002 1459
340490360,Grass Lake SD 36,Dr. William Newby,847-395-1550,http://www.gls36.org,Antioch,Lake,P-8,26177 W Grass Lake Rd,60002 9613
340490370,Gavin SD 37,Dr. Scott Schwartz,224-577-4112,http://www.gavin37.org,Ingleside,Lake,P-8,25775 W IL Route 134,60041 9587
340490380,Big Hollow SD 38,Mr. Robert Gold,847-740-1490,http://www.bighollow.us,Ingleside,Lake,P-8,26051 W Nippersink Rd,60041 8785
340490410,Lake Villa CCSD 41,Dr. Sandra Keim-Bounds,847-356-2385,https://www.district41.org/,Lake Villa,Lake,P-8,131 McKinley Ave,60046 8986
340490460,Grayslake CCSD 46,Dr. Lynn Glickman,847-223-3650,http://www.d46.org,Grayslake,Lake,P-8,565 Frederick Rd,60030 3909
340490500,Woodland CCSD 50,Dr. Robert Machak,847-596-5601,http://www.dist50.net,Gurnee,Lake,P-8,1105 N Hunt Club Rd,60031 2418
340490560,Gurnee SD 56,Dr. Luis Correa,847-336-0800,http://www.d56.org,Gurnee,Lake,P-8,3706 Florida Ave,60031 5527
340490600,Waukegan CUSD 60,Ms. Theresa Plascencia,224-303-1000,http://www.wps60.org,Waukegan,Lake,P-12,214 Washington St,60085 5618
340490650,Lake Bluff ESD 65,Dr. Lisa Leali,847-234-9400,http://www.lb65.org,Lake Bluff,Lake,P-8,121 E Sheridan Pl,60044 2632
340490670,Lake Forest SD 67,Dr. Matthew Montgomery,847-604-7401,,Lake Forest,Lake,P-8,300 S Waukegan Rd,60045 2643
340490680,Oak Grove SD 68 Green Oaks,Dr. Bryan Zwemke,847-367-4120,http://www.ogschool.org,Libertyville,Lake,P-8,1700 Oplaine Rd,60048 1541
340490700,Libertyville SD 70,Mrs. Rebecca A Jenkins,847-362-9695,,Libertyville,Lake,P-8,1381 Lake St,60048 1729
340490720,Rondout SD 72,Dr. Jenny T Wojcik,847-362-2021,http://www.rondout.org,Lake Forest,Lake,K-8,28593 N Bradley Rd,60045 1154
340490730,Hawthorn CCSD 73,Dr. Peter Hannigan,847-990-4244,http://www.hawthorn73.org,Vernon Hills,Lake,P-8,841 W End Ct,60061 1376
340490750,Mundelein ESD 75,Dr. Corey Tafoya,847-949-2700,http://www.district75.org,Mundelein,Lake,P-8,470 N Lake St,60060 1825
340490760,Diamond Lake SD 76,Dr. Erin Knoll,847-566-9221,http://www.dist76.org,Mundelein,Lake,P-8,26156 N Acorn Ln,60060 4071
340490790,Fremont SD 79,Dr. Trisha Kocanda,847-566-0169,http://www.fsd79.org,Mundelein,Lake,P-8,28855 N Fremont Center Rd,60060 9451
340490950,Lake Zurich CUSD 95,Dr. Kelley Gallt,847-438-2831,http://www.lz95.org,Lake Zurich,Lake,P-12,832 S Rand Rd,60047 2465
340490960,Kildeer Countryside CCSD 96,Ms. Kathryn E Sheridan,847-459-4260,http://www.kcsd96.org,Buffalo Grove,Lake,P-8,1050 Ivy Hall Ln,60089 1333
340491020,Aptakisic-Tripp CCSD 102,Dr. Jessica McIntyre,847-353-5660,http://www.d102.org,Buffalo Grove,Lake,P-8,1351 Abbott Court,60089 7040
340491030,Lincolnshire-Prairieview SD 103,Dr. Scott H Warren,847-295-4030,http://www.d103.org,Lincolnshire,Lake,P-8,111 Barclay Blvd Ste 100,60069 3610
340491060,Bannockburn SD 106,Dr. Scott Herrmann,847-945-5900,,Bannockburn,Lake,K-8,2165 Telegraph Rd,60015 1531
340491090,Deerfield SD 109,Mr. Michael V Simeck,847-945-1844,http://www.dps109.org,Deerfield,Lake,P-8,517 Deerfield Rd,60015 4408
340491120,North Shore SD 112,Dr. Michael Lubelfeld,224-765-3000,http://www.nssd112.org,Highwood,Lake,P-8,445 Sheridan Rd,60040 1317
340491130,Twp HSD 113,Dr. Chala Holland,224-765-1001,http://www.dist113.org,Highland Park,Lake,9-12,1040 Park Ave W,60035 2257
340491140,Fox Lake GSD 114,Mrs. Heather Friziellie,847-973-4027,http://www.d114.org,Spring Grove,Lake,P-8,29067 W Grass Lake Rd,60081 9494
340491150,Lake Forest CHSD 115,Dr. Matthew Montgomery,847-604-7401,http://lfhs.org,Lake Forest,Lake,9-12,300 S Waukegan Rd,60045 2643
340491160,Round Lake CUSD 116,Dr. Donn Mendoza,847-270-9003,http://www.rlas-116.org,Round Lake,Lake,P-12,811 Sunset Dr,60073 2827
340491170,CHSD 117,Dr. Jeff Feucht,847-838-7679,http://www.chsd117.org,Lake Villa,Lake,9-12,1625 Deep Lake Rd,60046 5324
340491180,Wauconda CUSD 118,Dr. Todd Leden,847-526-7690,http://www.d118.org,Wauconda,Lake,P-12,555 N Main St,60084 1229
340491200,Mundelein Cons HSD 120,Dr. Corey Tafoya,847-949-2700,http://www.d120.org,Mundelein,Lake,9-12,1500 W Hawley St,60060 1508
340491210,Warren Twp HSD 121,Dr. Daniel Woestman,847-548-7144,http://www.d121.org,Gurnee,Lake,9-12,34090 N Almond Rd,60031 5310
340491240,Grant CHSD 124,Dr. Jeremy Schmidt,847-587-2561,http://www.grantbulldogs.org,Fox Lake,Lake,9-12,285 E Grand Ave,60020 1634
340491250,Adlai E Stevenson HSD 125,Dr. Eric Twadell,847-415-4000,http://www.d125.org,Lincolnshire,Lake,9-12,2 Stevenson Dr,60069 2824
340491260,Zion-Benton Twp HSD 126,Dr. Jesse J Rodriguez,847-731-9792,http://www.zb126.org,Zion,Lake,9-12,3901 21st St,60099 1476
340491270,Grayslake CHSD 127,Dr. Mikkel Storaasli,847-986-3400,http://www.d127.org,Grayslake,Lake,9-12,400 N Lake St,60030 1430
340491280,CHSD 128,Dr. Marc Schaffer,847-247-4510,http://www.d128.org,Vernon Hills,Lake,9-12,50 Lakeview Pkwy Ste 101,60061 1578
340491870,North Chicago SD 187,Dr. John P Price,847-689-8150,http://www.d187.org,North Chicago,Lake,P-12,2000 Lewis Ave,60064 2543
340492200,Barrington CUSD 220,Dr. Craig Winkelman,847-381-6300,http://www.barrington220.org,Barrington,Lake,P-12,515 W Main St,60010 4175
350500010,Leland CUSD 1,Dr. Dan McDonnell,815-495-3821,http://www.leland1.org,Leland,La Salle,P-12,370 N Main St,60531 9400
350500020,Serena CUSD 2,Mr. Richard Faivre,815-496-2850,http://www.unit2.net,Serena,La Salle,K-12,PO Box 107,60549 0107
350500090,Earlville CUSD 9,Mr. James Hermes,815-246-8361,http://www.earlvillecusd9.org/,Earlville,La Salle,P-12,PO Box 539,60518 0539
350500175,Dimmick Community Consolidated SD #175,Dr. Jon Fox,815-223-2933,,La Salle,La Salle,K-8,297 N 33rd Rd,61301 9728
350500400,Streator Twp HSD 40,Mr. Scott Cameron,815-672-0545,http://streatorhs.org,Streator,La Salle,9-12,202 W Lincoln Ave,61364 2102
350500440,Streator ESD 44,Dr. Jeffrey Alstadt,815-672-2926,http://www.ses44.net,Streator,La Salle,P-8,1520 N Bloomington St,61364 1312
350500650,Allen-Otter Creek CCSD 65,Dr. Lindsey  Paul,815-586-4611,http://ransomgradeschool.net,Ransom,La Salle,K-8,400 S Lane St,60470 8087
350500790,Tonica CCSD 79,Mr. Robert Ketcham,815-442-3420,http://www.tonicagradeschool.org,Tonica,La Salle,P-8,535 N 1981st Rd,61370 9660
350500820,Deer Park CCSD 82,Mr. Ted Sanders,815-434-6930,http://www.deerpark.k12.il.us,Ottawa,La Salle,K-8,2350 E 1025th Rd,61350 9253
350500950,Grand Ridge CCSD 95,Dr. Adam Kueltzo,815-249-6225,http://www.grgs95.org,Grand Ridge,La Salle,K-8,400 W Main St,61325 9687
350501200,La Salle-Peru Twp HSD 120,Ingrid Cushing,815-223-2373,http://www.lphs.net,La Salle,La Salle,9-12,541 Chartres St,61301 2012
350501220,La Salle ESD 122,Mr. Brian DeBernardi,815-223-0786,http://www.lasalleschools.net,La Salle,La Salle,P-8,1165 Saint Vincents Ave,61301 1628
350501240,Peru ESD 124,Mr. Ryan Linnig,815-223-1111,http://www.perued.net,Peru,La Salle,P-8,1800 Church St,61354 1615
350501250,Oglesby ESD 125,Mr. Michael J Pillion,815-883-9297,http://www.ops125.net,Oglesby,La Salle,P-8,755 Bennett Ave,61348 1067
350501400,Ottawa Twp HSD 140,Dr. Michael Cushing,815-433-1323,http://www.ottawahigh.com,Ottawa,La Salle,9-12,211 E Main St,61350 3111
350501410,Ottawa ESD 141,Ms. Marissa Darlington,815-433-1133,http://www.oes141.org,Ottawa,La Salle,P-8,320 W Main St,61350 2825
350501500,Marseilles ESD 150,Mrs. Brenda Donahue,815-554-4338,http://mes150.org,Marseilles,La Salle,P-8,201 Chicago St,61341 2058
350501600,Seneca Twp HSD 160,Mr. Daniel B Stecken,815-357-5000,http://www.senecahs.org,Seneca,La Salle,9-12,PO Box 20,61360 0020
350501700,Seneca CCSD 170,Dr. Ryan Hansen,815-357-8744,http://www.sgs170.org,Seneca,La Salle,P-8,174 Oak St,61360 9500
350501850,Waltham CCSD 185,Mrs. Kristine M Eager,815-667-4417,http://www.wesd185.org,Utica,La Salle,P-8,2902 N Il Route 178,61373 9717
350501950,Wallace CCSD 195,Mr. Toby Coates,815-433-2986,http://www.wallacegs.org,Ottawa,La Salle,P-8,1463 N 33rd Rd,61350 9622
350502100,Miller Twp CCSD 210,Dr. Kristin Heredia,815-357-8151,http://www.miltonpope.net,Marseilles,La Salle,K-8,3197 E 28th Rd,61341 9567
350502300,Rutland CCSD 230,Michael Matteson,815-433-2949,,Ottawa,La Salle,P-8,3231 N Il Route 71,61350 9410
350502800,Mendota Twp HSD 280,Dr. Denise Aughenbaugh,815-539-7446,,Mendota,La Salle,9-12,2300 W Main St,61342 1061
350502890,Mendota CCSD 289,Mr. Brad Cox,815-539-7631,http://www.m289.org,Mendota,La Salle,P-8,1806 Guiles Ave,61342 1204
350504250,Lostant CUSD 425,Mr. Robert Ketcham,815-368-3392,http://www.lostantcomets.org,Lostant,La Salle,K-8,315 W 3rd St,61334 9021
350590050,Henry-Senachwine CUSD 5,Dr. Michael S Miller,309-364-3614,http://www.hscusd5.org,Henry,Marshall,P-12,1023 College St,61537 1074
350590070,Midland CUSD 7,Mr. Jeremy Gauwitz,309-469-2061,http://www.midland-7.net,Sparland,Marshall,P-12,901 Hilltop Dr,61565 9792
350785350,Putnam County CUSD 535,Clayton J Theisinger,815-882-2800,,Granville,Putnam,P-12,400 E Silverspoon Ave,61326 9697
390550010,Argenta-Oreana CUSD 1,Mr. Damian D Jones,217-795-2313,http://www.argenta-oreana.org,Argenta,Macon,P-12,PO Box 440,62501 0440
390550020,Maroa Forsyth CUSD 2,Mr. Adam Ibbotson,217-877-2023,http://www.mfschools.net,Maroa,Macon,P-12,450 W Washington St,61756 9204
390550030,Mt Zion CUSD 3,Dr. Travis Roundcount,217-864-2366,http://www.mtzschools.org,Mt Zion,Macon,P-12,1595 W Main St,62549 1300
390550090,Sangamon Valley CUSD 9,Dr. Jonathan D Field,217-668-2338,http://www.sangamonvalley.org,Niantic,Macon,P-12,398 N Illinois St,62551
390550110,Warrensburg-Latham CUSD 11,Mrs. Cheryl L Warner,217-672-3514,http://wl.k12.il.us,Warrensburg,Macon,P-12,430 W North St,62573 2001
390550150,Meridian CUSD 15,Dr. Shane Gordon,217-764-5269,http://www.meridianhawks.net,Macon,Macon,P-12,PO Box 347,62544 0347
390550610,Decatur SD 61,Dr. Rochelle Clark,217-362-3010,http://www.dps61.org,Decatur,Macon,P-12,101 W Cerro Gordo St,62523 1001
390740050,Bement CUSD 5,Mrs. Mary Vogt,217-678-4200,http://www.bement.k12.il.us,Bement,Piatt,P-12,201 S Champaign St,61813 1512
390740250,Monticello CUSD 25,Adam Clapp,217-762-8511,http://www.sages.us,Monticello,Piatt,P-12,2 Sage Dr,61856 1813
390740570,Deland-Weldon CUSD 57,Dr. Michael Tresnak,309-928-7691,http://www.dwschools.org,De Land,Piatt,P-12,304 E IL Route 10,61839 7020
390741000,Cerro Gordo CUSD 100,Dr. Emily Weidner,217-763-5221,http://www.cgbroncos.org,Cerro Gordo,Piatt,P-12,PO Box 79,61818 0079
400070400,Calhoun CUSD 40,Mrs. Lori Young,618-576-2722,http://www.calhoun.k12.il.us,Hardin,Calhoun,P-12,101 Calhoun Ave,62047 0387
400070420,Brussels CUSD 42,Dr. Lori Hopkins,618-883-2131,http://www.brussels42.net,Brussels,Calhoun,K-12,PO Box 128,62013 0128
400310010,Carrollton CUSD 1,Mr. Jason Bauer,217-942-5314,http://www.c-hawks.net,Carrollton,Greene,P-12,950A 3rd St,62016 1506
400310030,North Greene CUSD 3,Mrs. Jaclyn Kuchy,217-374-2842,http://www.northgreene.com,White Hall,Greene,P-12,250 E Sherman St,62092 1359
400310100,Greenfield CUSD 10,Mr. Andy Stumpf,217-368-2447,http://www.greenfieldschools.org,Greenfield,Greene,P-12,311 Mulberry St,62044 1325
400421000,Jersey CUSD 100,Mr. Brad Tuttle,618-498-5561,http://www.jersey100.org,Jerseyville,Jersey,P-12,100 Lincoln Ave,62052 1473
400560010,Carlinville CUSD 1,Dr. Becky Schuchman,217-854-9823,http://www.cusd1.com,Carlinville,Macoupin,P-12,829 W Main St,62626 1261
400560020,Northwestern CUSD 2,Mr. Patrick Bowman,217-436-2210,http://www.northwestern.k12.il.us,Palmyra,Macoupin,P-12,30510 Route 111,62674 6300
400560050,Mount Olive CUSD 5,Stephanie M Cann,217-999-7831,http://mtoliveschools.org,Mount Olive,Macoupin,P-12,804 W Main St,62069 1549
400560060,Staunton CUSD 6,Mr. Brett Allen,618-635-2962,http://www.stauntonschools.org,Staunton,Macoupin,P-12,604 N Franklin St,62088 1024
400560070,Gillespie CUSD 7,Mr. Robert S Owsley,217-839-2464,http://www.gcusd7.org,Gillespie,Macoupin,P-12,510 W Elm St,62033 1167
400560080,Bunker Hill CUSD 8,Dr. Todd Dugan,618-585-3116,http://www.bhcusd.org,Bunker Hill,Macoupin,P-12,504 E Warren St,62014 1102
400560090,Southwestern CUSD 9,Dr. Kevin Bowman,618-372-3813,http://www.piasabirds.net,Brighton,Macoupin,P-12,PO Box 728,62012 0728
400560340,North Mac CUSD 34,Mr. Kyle Hacke,217-627-2915,http://www.northmacschools.org,Girard,Macoupin,P-12,525 N 3rd St,62640 1157
410570010,Roxana CUSD 1,Mrs. Debra Kreutztrager,618-254-7541,http://www.rcusd.org,Roxana,Madison,P-12,401 Chaffer Ave,62084 1125
410570020,Triad CUSD 2,Dr. Jason Henderson,618-667-5400,https://www.tcusd2.org,Troy,Madison,P-12,203 E Throp St,62294 1231
410570030,Venice CUSD 3,Dr. Cynthia Tolbert,618-274-7953,http://www.venice.k12.il.us,Venice,Madison,P-8,300 4th St,62090 1015
410570050,Highland CUSD 5,Mr. Michael S Sutton,618-654-2106,http://www.highlandcusd5.org,Highland,Madison,P-12,400 Broadway,62249 2024
410570070,Edwardsville CUSD 7,Dr. Allen Duncan,618-656-1182,,Edwardsville,Madison,P-12,708 Saint Louis St,62025 1427
410570080,Bethalto CUSD 8,Dr. Jill Griffin,618-377-7200,http://www.bethalto.org,Bethalto,Madison,P-12,101 School St,62010 1005
410570090,Granite City CUSD 9,Dr. Donald Harris,618-451-5800,http://www.gcsd9.net,Granite City,Madison,P-12,3200 Maryville Rd,62040 5144
410570100,Collinsville CUSD 10,Dr. Mark B Skertich,618-346-6350,http://www.kahoks.org,Collinsville,Madison,P-12,201 W Clay St,62234 3219
410570110,Alton CUSD 11,Mrs. Elaine Kane,618-474-2600,http://altonschools.org,Alton,Madison,P-12,550 Landmarks Blvd Ste A,62002 6321
410570120,Madison CUSD 12,Dr. Andrew P Reinking,618-877-1712,http://www.madisoncusd12.org,Madison,Madison,P-12,602 Farrish St,62060 1567
410570130,East Alton SD 13,Ms. Nancy Werden,618-433-2051,http://www.easd13.org,East Alton,Madison,P-8,210 E Saint Louis Ave,62024 1455
410570140,East Alton-Wood River CHSD 14,Mr. Timothy Rob Miller,618-254-3151,http://www.eawr.org,Wood River,Madison,9-12,777 N Wood River Ave,62095 1227
410570150,Wood River-Hartford ESD 15,Dr. Patrick Anderson,618-254-0607,http://www.wrh15.org,Wood River,Madison,P-8,501 E Lorena Ave,62095 2123
440630020,Nippersink SD 2,Dr. Tom Lind,815-678-6863,http://www.nippersinkdistrict2.org,Richmond,McHenry,P-8,4213 US Highway 12,60071 9732
440630030,Fox River Grove Cons SD 3,Dr. Matt Mayer,847-516-5100,http://www.dist3.org,Fox River Grove,McHenry,P-8,403 Orchard St,60021 1145
440630120,Johnsburg CUSD 12,Dr. Jason Nault,815-385-6916,http://www.johnsburg12.org,Johnsburg,McHenry,P-12,2222 Church St,60051 5910
440630150,McHenry CCSD 15,Dr. Josh Reitz,779-244-1000,http://www.d15.org,Mchenry,McHenry,P-8,420 Front St,60050 5528
440630180,Riley CCSD 18,Mr. Jason Grey,815-568-8637,http://riley18.org,Marengo,McHenry,K-8,9406 Riley Rd,60152 9013
440630190,Alden Hebron SD 19,Mrs. Tiffany Elswick,815-648-2442,http://www.alden-hebron.org,Hebron,McHenry,P-12,9604 Illinois St,60034 9618
440630260,Cary CCSD 26,Dr. Jennifer Thomas,224-357-5100,http://www.cary26.org,Cary,McHenry,P-8,2115 Crystal Lake Rd,60013 1426
440630360,Harrison SD 36,Dr. Susan Wings,815-653-2311,http://www.hsd36.org,Wonder Lake,McHenry,P-8,6809 Mccullom Lake Rd,60097 9546
440630460,Prairie Grove CSD 46,Dr. Bhavna Sharma-Lewis,815-459-3023,http://www.dist46.org,Crystal Lake,McHenry,P-8,3223 IL Route 176,60014 2145
440630470,Crystal Lake CCSD 47,Dr. Kathy J Hinz,815-788-5000,http://www.d47.org,Crystal Lake,McHenry,P-8,300 Commerce Dr,60014 3503
440630500,Harvard CUSD 50,Dr. Brandon White,815-943-4022,http://www.cusd50.org,Harvard,McHenry,P-12,401 N Division St,60033 3031
440631540,Marengo CHSD 154,Mr. David Engelbrecht,815-568-6511,,Marengo,McHenry,9-12,110 Franks Rd,60152 3425
440631550,CHSD 155,Dr. Neil Lesinski,815-455-8500,,Crystal Lake,McHenry,9-12,1 Virginia Rd,60014 7901
440631560,McHenry CHSD 156,Dr. Ryan McTague,815-759-2022,http://www.dist156.org,McHenry,McHenry,9-12,4716 W Crystal Lake Rd,60050 5427
440631570,Richmond-Burton CHSD 157,Dr. Tom Lind,815-678-4242,http://www.rbchs.com,Richmond,McHenry,9-12,4213 US Highway 12,60071 9732
440631580,Huntley Community School District 158,Ms. Jessica Lombard,847-659-6158,http://huntley158.org,Algonquin,McHenry,P-12,650 Dr John Burkey Dr,60102 4423
440631650,Marengo-Union E Cons D 165,Dr. Lea Damisch,815-568-8323,http://marengo165.org,Marengo,McHenry,P-8,816 E Grant Hwy,60152 3400
440632000,Woodstock CUSD 200,Dr. Michael Moan,815-337-5406,http://www.woodstockschools.org,Woodstock,McHenry,P-12,2990 Raffel Rd,60098 3126
450670030,Valmeyer CUSD 3,Mr. Eric Frankford,618-935-2100,,Valmeyer,Monroe,P-12,300 S Cedar Bluff Dr,62295 3133
450670040,Columbia CUSD 4,Mr. Christopher Grode,618-281-4772,http://www.columbia4.org,Columbia,Monroe,P-12,5 Veterans Pkwy,62236 1147
450670050,Waterloo CUSD 5,Mr. Brian D Charron,618-939-3453,http://www.wcusd5.net,Waterloo,Monroe,P-12,302 Bellefontaine Dr,62298 1790
450790010,Coulterville USD 1,Vince Hughes,618-758-2881,http://www.cvillecusd1.com,Coulterville,Randolph,P-12,PO Box 396,62237 0396
450791220,Chester N HSD 122,Mr. Ryan McClellan,618-473-8945,http://www.roe45.org,Red Bud,Randolph,,134 N Main St,62278 1072
450791320,Red Bud CUSD 132,Mr. Jonathan Tallman,618-282-3507,http://www.redbud132.org,Red Bud,Randolph,P-12,815 Locust St,62278 1210
450791340,Prairie Du Rocher CCSD 134,Mrs. Suzanne McCarty,618-284-3530,,Prairie Du Rocher,Randolph,P-8,714 Middle St,62277 2136
450791380,Steeleville CUSD 138,Dr. Stephanie L Mulholland,618-965-3469,http://www.steeleville138.org,Steeleville,Randolph,P-12,609 S Sparta St,62288 2130
450791390,Chester CUSD 139,Kimberly Briggs,618-826-4509,http://www.chester139.com/,Chester,Randolph,P-12,1940 Swanwick St,62233 1127
450791400,Sparta CUSD 140,Mr. Chris Miesner,618-443-5331,https://www.sparta140.org/,Sparta,Randolph,P-12,203B Dean Ave,62286 2301
470521700,Dixon USD 170,Mrs. Margo D Empen,815-373-4966,http://www.dps170.org,Dixon,Lee,P-12,1335 Franklin Grove Rd,61021 9257
470522200,Steward ESD 220,Mr. Steven Simpson,815-396-2413,http://www.stewardschool220.org,Steward,Lee,K-8,PO Box 76,60553 0076
470522710,Paw Paw CUSD 271,Jennifer DuBois,815-627-2841,http://2paws.net,Paw Paw,Lee,P-12,PO Box 508,61353 0508
470522720,Amboy CUSD 272,Mr. Joshua Nichols,815-857-2164,http://www.amboy.net,Amboy,Lee,P-12,11 E Hawley St,61310 1430
470522750,Ashton-Franklin Center CUSD 275,Mr. Michael Lindy,815-453-7461,http://www.afcschools.net,Ashton,Lee,P-12,611 Western Ave,61006 9445
470711440,Kings Cons SD 144,Mr. Matt Lamb,815-562-7191,http://kings144.org,Kings,Ogle,K-8,100 1st St,61068 4500
470711610,Creston CCSD 161,Mrs. Nicole Zellmer,815-384-3920,http://www.crestonschool.org,Creston,Ogle,K-8,PO Box 37,60113 0037
470712120,Rochelle Twp HSD 212,Dr. Jason M Harper,815-562-4161,http://www.rthsd212.org,Rochelle,Ogle,9-12,1401 Flagg Rd,61068 6400
470712200,Oregon CUSD 220,Dr. Phillip Caposey,815-732-5300,http://www.ocusd.net,Oregon,Ogle,P-12,206 S 10th St,61061 1711
470712210,Forrestville Valley CUSD 221,Mrs. Sheri Smith,815-938-2036,http://www.fvdistrict221.org/,Forreston,Ogle,P-12,PO Box 665,61030 0665
470712220,Polo CUSD 222,Dr. Kelly Mandrell,815-946-3815,http://www.poloschools.net,Polo,Ogle,P-12,100 S Union Ave,61064 1724
470712230,Meridian CUSD 223,Dr. Michael Plourde,815-645-2230,http://www.meridian223.org,Stillman Valley,Ogle,P-12,207 W Main St,61084 9037
470712260,Byron CUSD 226,Mr. Buster Barton,815-234-5491,http://byron226.org,Byron,Ogle,P-12,696 N Colfax St,61010 1439
470712310,Rochelle CCSD 231,Dr. Jason M Harper,815-562-6363,http://www.d231.rochelle.net,Rochelle,Ogle,P-8,1401 Flagg Rd,61068 6400
470712690,Eswood CCSD 269,Mrs. Kirsten Garrigan,815-393-4477,http://www.leeogle.org/,Lindenwood,Ogle,K-8,304 Main St,61049 7700
470980010,Erie CUSD 1,Mr. Charles Milem,309-659-2239,http://www.ecusd.info,Erie,Whiteside,P-12,520 5th Ave,61250 9439
470980020,River Bend CUSD 2,Dr. Darryl Hogue,815-589-2711,http://www.riverbendschools.org,Fulton,Whiteside,P-12,1110 3rd St,61252 1767
470980030,Prophetstown-Lyndon-Tampico CUSD3,Mrs. Heidi L Lensing,815-537-5101,http://www.plt3.org,Prophetstown,Whiteside,P-12,79 Grove St,61277 9376
470980050,Sterling CUSD 5,Dr. Tad Everett,815-626-5050,http://www.sterlingpublicschools.org,Sterling,Whiteside,P-12,410 E Le Fevre Rd,61081 1391
470980060,Morrison CUSD 6,Dr. Matthew DeBaene,815-772-2064,http://www.morrisonschools.org,Morrison,Whiteside,P-12,100 E Knox St,61270 2619
470980130,Rock Falls ESD 13,Mrs. Kelli Virgil,815-626-2604,http://www.rfsd13.org,Rock Falls,Whiteside,P-8,602 4th Ave,61071 1229
470980200,East Coloma - Nelson CESD 20,Mr. Christopher Lensing,815-625-4400,http://ecolomanelson.net,Rock Falls,Whiteside,P-8,1602 Dixon Rd,61071 1913
470981450,Montmorency CCSD 145,Mr. Alex J Moore,815-625-6616,http://www.mgs145.net,Rock Falls,Whiteside,K-8,9415 Hoover Rd,61071 9350
470983010,Rock Falls Twp HSD 301,Mr. Ron McCord,815-625-3886,http://www.rfhs301.org,Rock Falls,Whiteside,9-12,101 12th Ave,61071 1023
480720620,Pleasant Valley SD 62,Mrs. Tracy A Forck,309-679-0634,http://www.pv62.com,Peoria,Peoria,P-8,3314 W Richwoods Blvd,61604 1027
480720630,Norwood ESD 63,Mr. Jacob Flowers,309-676-3523,http://www.norwood63.org,Peoria,Peoria,P-8,6521 W Farmington Rd,61604 4419
480720660,Bartonville SD 66,Mr. Brad Jockisch,309-697-3253,,Bartonville,Peoria,P-8,6000 S Adams St,61607 2580
480720680,Oak Grove SD 68  Bartonville,Dr. Loren Baele,309-697-0621,https://www.og68.org,Bartonville,Peoria,P-8,6018 W Lancaster Rd,61607 2117
480720690,Pleasant Hill SD 69,Dr. Lisa Weaver,309-637-6829,http://www.phill69.com,Peoria,Peoria,P-8,3717 W Malone St,61605 1263
480720700,Monroe SD 70,Dr. Darrick Reiley,309-697-3120,http://www.monroe70.org,Bartonville,Peoria,P-8,5137 W Cisna Rd,61607 1434
480721500,Peoria SD 150,Dr. Sharon Desmoulin-Kherat,309-672-6768,http://www.psd150.org,Peoria,Peoria,P-12,3202 N Wisconsin Ave,61603 1260
480722650,Farmington Central CUSD 265,Dr. Zac Chatterton,309-245-1000,http://www.dist265.com,Farmington,Peoria,P-12,212 N Lightfoot Rd,61531 9648
480723090,Brimfield CUSD 309,Mr. Chad Jones,309-446-3378,http://www.brimfield309.com,Brimfield,Peoria,P-12,PO Box 380,61517 0380
480723100,Limestone CHSD 310,Mr. Keith Brown,309-697-6271,http://www.limestone310.org,Peoria,Peoria,9-12,4201 Airport Rd,61607 2113
480723160,Limestone Walters CCSD 316,Mr. Dan Lamboley,309-697-3035,http://www.limestonewalters.com,Peoria,Peoria,K-8,8223 W Smithville Rd,61607 9428
480723210,Il Valley Central USD 321,Dr. Chad Allison,309-245-3978,http://www.ivcschools.com,Chillicothe,Peoria,P-12,1008 N 4Th St,61523 1574
480723220,Elmwood CUSD 322,Mr. Joel Schmieg,309-742-8464,http://www.elmwood322.com,Elmwood,Peoria,P-12,301 W Butternut St,61529 9454
480723230,Dunlap CUSD 323,Dr. Scott Dearman,309-243-8700,http://www.dunlapcusd.net,Dunlap,Peoria,P-12,400 S 4Th St,61525 8936
480723250,Peoria Heights CUSD 325,Dr. Eric M Heath,309-686-8800,http://www.ph325.org,Peoria Heights,Peoria,P-12,500 E Glen Ave,61616 5106
480723260,Princeville CUSD 326,Mr. Tony Shinall,309-385-2213,http://www.princeville326.org,Princeville,Peoria,P-12,909 N Town Ave,61559 7536
480723270,Illini Bluffs CUSD 327,Mr. Dimitri Almasi,309-389-2231,http://www.illinibluffs.com,Glasford,Peoria,P-12,9611 S Hanna City Glasford Rd,61533 9506
480723280,Hollis Cons SD 328,Mr. Byron Sondgeroth,309-697-1325,http://www.hollis328.net,Peoria,Peoria,K-8,5613 W Tuscarora Rd,61607 9564
490810290,Hampton SD 29,Dr. Jake Klipsch,309-755-0693,http://www.hampton29.com,Hampton,Rock Island,K-8,206 5th St,61256 9662
490810300,United Twp HSD 30,Dr. Jay C Morrow,309-752-1611,http://uths.net,East Moline,Rock Island,9-12,1275 Avenue of The Cities,61244 4145
490810340,Silvis SD 34,Dr. Terri Vandewiele,309-792-9325,http://www.silvisrockets.com,East Moline,Rock Island,P-8,4280 4th Ave,61244 1924
490810360,Carbon Cliff-Barstow SD 36,Mr. Eric Lawson,309-792-2002,http://www.ccb36.com,Silvis,Rock Island,P-8,2002 Eagle Ridge Dr,61282 1779
490810370,East Moline SD 37,Dr. Kristin M Humphries,309-792-2887,http://www.emsd37.org,East Moline,Rock Island,P-8,3451 Morton Dr,61244 1921
490810400,Moline-Coal Valley CUSD 40,Dr. Rachel Savage,309-743-1600,http://www.molineschools.org,Moline,Rock Island,P-12,1900 52Nd Ave,61265 6380
490810410,Rock Island SD 41,Dr. Sharon Williams,309-793-5900,http://rimsd41.org,Rock Island,Rock Island,P-12,2000 7th Avenue,61201 8909
490811000,Riverdale CUSD 100,Mr. Joshua Temple,309-523-3184,http://www.riverdaleschools.org,Port Byron,Rock Island,P-12,9624 256th St N,61275 9054
490812000,Sherrard CUSD 200,Dr. Carl Johnson,309-593-4075,http://www.sherrard.us,Sherrard,Rock Island,P-12,PO Box 369,61281 0369
490813000,Rockridge CUSD 300,Mr. Marcus Bush,309-793-8001,http://www.rr300.org,Taylor Ridge,Rock Island,P-12,14110 134th Ave W,61284 9719
500820090,Lebanon CUSD 9,Dr. Matt Noyes,618-537-4611,http://lcusd9.org/,Lebanon,Saint Clair,P-12,200 W Schuetz St,62254 1570
500820190,Mascoutah CUD 19,Dr. Dave Deets,618-566-7414,http://msd19.org,Mascoutah,Saint Clair,P-12,421 W Harnett St,62258 1362
500820300,St Libory Cons SD 30,Dr. Thomas Rude,618-768-4923,http://www.stlibory30.org,Saint Libory,Saint Clair,K-8,PO Box 323,62282 0323
500820400,Marissa CUSD 40,Mr. Jeff Strieker,618-295-2313,http://www.marissa40.org,Marissa,Saint Clair,P-12,1 E Marissa St,62257 1185
500820600,New Athens CUSD 60,Brian Karraker,618-475-2174,,New Athens,Saint Clair,P-12,501 Hanft St,62264 1507
500820700,Freeburg CCSD 70,Mr. Mark Bearley,618-539-3188,http://www.frg70.org,Freeburg,Saint Clair,P-8,408 S Belleville St,62243 1534
500820770,Freeburg CHSD 77,Dr. Sarah J Gass,618-539-5533,,Freeburg,Saint Clair,9-12,401 S Monroe St,62243 1535
500820850,Shiloh Village SD 85,Dale F Sauer,618-632-7434,http://www.shi85.org,Shiloh,Saint Clair,P-8,125 Diamond Ct,62269 3617
500820900,O Fallon CCSD 90,Dr. Carrie E Hruby,618-632-3666,http://www.of90.net,O Fallon,Saint Clair,P-8,118 E Washington St,62269 1419
500821040,Central SD 104,Dr. Gabrielle Rodriguez,618-632-6336,http://central104.org,O Fallon,Saint Clair,P-8,303 Hartman Ln,62269 1725
500821050,Pontiac-W Holliday SD 105,Dr. Brian Arteberry,618-233-2320,http://www.pwh105.org,Fairview Heights,Saint Clair,P-8,400 Ashland Ave,62208 2802
500821100,Grant CCSD 110,Mr. Matthew A Stines,618-398-5577,http://www.dist110.com,Fairview Heights,Saint Clair,P-8,10110 Old Lincoln Trl,62208 2422
500821130,Wolf Branch SD 113,Dr. Nicole Sanderson,618-277-2100,http://www.wbsd113.org,Swansea,Saint Clair,P-8,410 Huntwood Rd,62226 1824
500821150,Whiteside SD 115,Mr. Mark L Heuring,618-239-0000,http://www.wssd115.org,Belleville,Saint Clair,P-8,111 Warrior Way,62221 5117
500821160,High Mount SD 116,Dr. Beth Horner,618-233-1054,http://www.highmountschool.com,Swansea,Saint Clair,P-8,1721 Boul Ave,62226 4254
500821180,Belleville SD 118,Dr. Ryan L Boike,618-233-2830,http://belleville118.org,Belleville,Saint Clair,P-8,105 W A St,62220 1326
500821190,Belle Valley SD 119,Dr. Melanie Brink,618-236-5200,http://www.bv119.org,Belleville,Saint Clair,P-8,2465 Amann Dr,62220 3463
500821300,Smithton CCSD 130,Dr. Courtney Castelli,618-233-6863,http://www.sccsd130.com,Smithton,Saint Clair,P-8,PO Box 395,62285 0395
500821600,Millstadt CCSD 160,Dr. Brian Mentzer,618-476-1803,http://www.mccsd160.com,Millstadt,Saint Clair,P-8,211 W Mill St,62260 1147
500821750,Harmony Emge SD 175,Dr. Dustin Nail,618-397-8444,http://www.harmony175.org,Belleville,Saint Clair,P-8,7401 Westchester Dr,62223 2635
500821810,Signal Hill SD 181,Mr. Kelly Bohnenstiehl,618-397-0325,http://www.signalhill181.org,Belleville,Saint Clair,P-8,40 Signal Hill Pl,62223 1644
500821870,Cahokia CUSD 187,Mr. Curtis McCall Jr,618-332-3700,http://www.cusd187.org,Cahokia,Saint Clair,P-12,1700 Jerome Ln,62206 2329
500821880,Brooklyn UD 188,Dr. Connie Y McCartney,618-271-1014,http://lovejoyschool.org,Lovejoy,Saint Clair,K-12,PO Box 250,62059 0250
500821890,East St Louis SD 189,Mr. Arthur Culver,618-646-3009,http://estl189.com,East Saint Louis,Saint Clair,P-12,1005 State St,62201 1907
500821960,Community Unit School District No 196,Dr. Victoria White,618-286-3812,http://www.dupo196.org,Dupo,Saint Clair,P-12,600 Louisa Ave,62239 1469
500822010,Belleville Twp HSD 201,Dr. Marshaun Warren,618-222-8241,http://www.bths201.org,Belleville,Saint Clair,9-12,920 N Illinois St,62220 4374
500822030,O Fallon Twp HSD 203,Dr. Beth M Shackelford,618-632-3507,http://www.oths.us,O Fallon,Saint Clair,9-12,600 S Smiley St,62269 2316
510652000,Greenview CUSD 200,Mr. Ryan Heavner,217-968-2295,http://www.greenviewschools.org,Greenview,Menard,P-12,147 E Palmer St,62642 1000
510652020,Porta CUSD 202,Mr. Shannon Duling,217-632-3803,http://www.porta202.org,Petersburg,Menard,P-12,PO Box 202,62675 0202
510652130,Athens CUSD 213,Scott Laird,217-636-8761,,Athens,Menard,P-12,501 Warrior Way,62613 9473
510840010,Tri City CUSD 1,Mr. Chad Colmone,217-364-4811,http://www.tricityschools.org,Buffalo,Sangamon,P-12,324 W Charles St,62515 6267
51084003A,Rochester CUSD 3A,Rolf Sivertsen,217-498-6210,http://www.rochester3a.net,Rochester,Sangamon,P-12,4 Rocket Dr,62563 9282
510840050,Ball Chatham CUSD 5,Dr. Becca Lamon,217-483-2416,http://www.chathamschools.org,Chatham,Sangamon,P-12,1475 E Plummer Blvd,62629 8090
510840080,Pleasant Plains CUSD 8,Mr. Luke Brooks,217-626-1041,http://www.ppcusd8.org,Pleasant Plains,Sangamon,P-12,315 W Church St,62677 9709
510840100,Auburn CUSD 10,Dr. Darren J Root,217-438-6164,http://www.auburn.k12.il.us,Auburn,Sangamon,P-12,606 W North St,62615 1144
510840110,Pawnee CUSD 11,Mrs. Molly Edmonds,217-625-2471,http://www.pawneeschools.com,Pawnee,Sangamon,P-12,810 4th St,62558 9680
510840140,Riverton CUSD 14,Dr. Brad Polanin,217-629-6009,http://www.rivertonschools.org,Riverton,Sangamon,P-12,PO Box 1010,62561 1010
510840150,Williamsville CUSD 15,Mr. Tip Reedy,217-566-2014,http://www.wcusd15.org,Williamsville,Sangamon,P-12,451 S Pine St,62693 7539
510840160,New Berlin CUSD 16,Mrs. Jill Larson,217-488-2040,http://www.pretzelpride.com/,New Berlin,Sangamon,P-12,600 N Cedar St,62670 4608
510841860,Springfield SD 186,Mrs. Jennifer E Gill,217-525-3002,http://www.sps186.org,Springfield,Sangamon,P-12,3063 Fiat Ave,62703 5930
530601260,Havana CUSD 126,Mrs. Andrea Lee,309-543-3384,http://www.havana126.net,Havana,Mason,P-12,501 S McKinley St,62644 1867
530601890,Illini Central CUSD 189,Dr. Jennifer Durbin,217-482-5180,http://www.illinicentral.org,Mason City,Mason,P-12,208 N West Ave,62664 1066
530601910,Midwest Central CUSD 191,Dr. Todd Hellrigel,309-968-6868,http://www.midwestcentral.org,Manito,Mason,P-12,1010 S Washington St,61546 9474
530900500,District 50 Schools,Dr. Chad Allaman,309-745-8914,http://www.d50schools.com,Washington,Tazewell,P-8,304 E Almond Dr,61571 3104
530900510,Central SD 51,Mr. Dale Heidbreder,309-444-3943,http://www.central51.net/,Washington,Tazewell,P-8,1301 Eagle Ave,61571 1111
530900520,Washington SD 52,Mr. Patreak Minasian,309-444-4182,http://www.d52schools.com,Washington,Tazewell,P-8,303 Jackson St,61571 1473
530900760,Creve Coeur SD 76,Mr. Steve Johnson,309-698-3600,http://www.cc76.org,Creve Coeur,Tazewell,P-8,400 N Highland St,61610 3137
530900850,Robein SD 85,Mr. Bradley Bennett,309-694-1409,http://www.robein.org,East Peoria,Tazewell,P-8,200 Campus Ave,61611 1601
530900860,East Peoria SD 86,Tony Ingold,309-427-5100,http://www.epd86.org,East Peoria,Tazewell,P-8,601 Taylor St,61611 2685
530900980,Rankin CSD 98,Dr. Matt Gordon,309-346-3182,http://rankin98.org,Pekin,Tazewell,K-8,13716 5th St,61554 9650
530901020,N Pekin & Marquette Hght SD 102,Mrs. Jennifer Lindsay,309-382-2172,http://www.dist102.org,Marquette Heights,Tazewell,P-8,51 Yates Rd,61554 1152
530901080,Pekin PSD 108,Mr. Leonard W Ealey III,309-477-4700,https://www.pekin.net/,Pekin,Tazewell,P-8,501 Washington St,61554 4287
530901370,South Pekin SD 137,Mr. Seth Mingus,309-348-3695,http://www.spgs.net,South Pekin,Tazewell,P-8,PO Box 430,61564 0430
530903030,Pekin CSD 303,Dr. Danielle Owens,309-477-4222,http://www.pekinhigh.net,Pekin,Tazewell,9-12,320 Stadium Dr,61554 5266
530903080,Washington CHSD 308,Dr. Kyle Freeman,309-444-3167,http://www.wacohi.net,Washington,Tazewell,9-12,115 Bondurant St,61571 2448
530903090,East Peoria CHSD 309,Mr. Damon Hackett,309-694-8300,http://www.ep309.org,East Peoria,Tazewell,9-12,1401 E Washington St,61611 2863
530906060,Spring Lake CCSD 606,Dr. Dawn Green,309-545-2241,http://www.springlake606.org,Manito,Tazewell,K-8,13650 N Manito Rd,61546 8438
530907010,Deer Creek-Mackinaw CUSD 701,Mr. Brian Maloy,309-359-8965,http://www.deemack.org,Mackinaw,Tazewell,P-12,401 E Fifth St,61755 7623
530907020,Tremont CUSD 702,Mr. Sean Berry,309-925-3461,http://www.tremont702.net/home,Tremont,Tazewell,P-12,400 W Pearl St,61568 8500
530907030,Delavan CUSD 703,Mrs. Amanda Geary,309-244-8283,,Delavan,Tazewell,P-12,907 Locust St,61734 9327
530907090,Morton CUSD 709,Dr. Joseph Sander,309-263-2581,http://www.morton709.org,Morton,Tazewell,P-12,1050 S 4th Ave Ste 200,61550 2502
531020010,Metamora CCSD 1,Dr. Benjamin Lee,309-367-2361,http://mgsredbirds.org,Metamora,Woodford,P-8,815 E Chatham St,61548 8745
531020020,Riverview CCSD 2,Mr. Tim Turner,309-822-8550,http://www.rgsting.org,East Peoria,Woodford,P-8,1421 Spring Bay Rd,61611 9762
531020060,Fieldcrest CUSD 6,Mr. David W Johnson,309-432-2177,http://www.unit6.org,Minonk,Woodford,P-12,1 Dornbush Dr,61760 1363
531020110,El Paso-Gridley CUSD 11,Dr. DeAnn Heck,309-527-4410,http://www.unit11.org,El Paso,Woodford,P-12,97 W 5th St,61738 1049
531020210,Lowpoint-Washburn CUSD 21,Dr. David Johnson,309-248-7522,http://washburn.k12.il.us,Washburn,Woodford,P-12,PO Box 580,61570 0580
531020600,Roanoke Benson CUSD 60,John T Streit,309-923-8921,http://www.rb60.com,Roanoke,Woodford,P-12,PO Box 320,61561 0320
531020690,Germantown Hills SD 69,Dr. Adam Brumbaugh,309-383-2121,http://www.ghills69.com,Germantown Hills,Woodford,P-8,103 Warrior Way,61548 9108
531021220,County of Woodford School,Mr. Sean D OLaughlin,309-367-4129,http://www.mths.us,Metamora,Woodford,9-12,PO Box 109,61548 0109
531021400,Eureka CUD 140,Mr. Robert Bardwell,309-467-3737,http://www.district140.org,Eureka,Woodford,P-12,109 W Cruger Ave,61530 1345
540920010,Bismarck Henning CUSD,Mr. Scott E Watson,217-759-7261,http://www.bismarck.k12.il.us,Bismarck,Vermilion,K-12,PO Box 350,61814 0350
540920020,Westville CUSD 2,Dr. Seth Miller,217-267-3141,http://www.gowestville.org,Westville,Vermilion,P-12,125 W Ellsworth St,61883 1233
540920040,Georgetown-Ridge Farm CUD 4,Dr. Jean M Neal,217-662-8488,http://www.grf.k12.il.us,Georgetown,Vermilion,P-12,502 W Mulberry St,61846 1846
540920070,Rossville-Alvin CUSD 7,Dr. Crystal Johnson Maden,217-748-6666,http://rossville.k12.il.us,Rossville,Vermilion,P-12,350 N Chicago St,60963 9700
540920100,Potomac CUSD 10,Mr. Jim Owens,217-987-6155,http://www.pgscardinals.org,Potomac,Vermilion,P-8,7915 US Route 136,61865 3158
540920110,Hoopeston Area CUSD 11,Mr. Robert Richardson,217-283-6668,http://www.hoopeston.k12.il.us,Hoopeston,Vermilion,P-12,615 E Orange St,60942 1855
540920610,Armstrong-Ellis Cons SD 61,Nick Hipsher,217-569-2115,,Armstrong,Vermilion,P-8,PO Box 7,61812 0007
540920760,Oakwood CUSD 76,Mr. Andrew Jordan,217-446-6081,http://www.oakwood76.org,Oakwood,Vermilion,P-12,12190 US Route 150,61858 6174
540921180,Danville CCSD 118,Mr. John Hart,217-444-1004,http://www.danville118.org,Danville,Vermilion,P-12,110 E Williams St,61832 4634
540922250,Armstrong Twp HSD 225,Nick Joseph Hipsher,217-569-2122,http://armstrong.k12.il.us,Armstrong,Vermilion,9-12,PO Box 37,61812 0037
540925120,Salt Fork Community Unit District  512,Mr. Phillip A Cox,217-427-2116,,Catlin,Vermilion,P-12,701 1/2 W Vermilion St,61817 9781
560990170,Channahon SD 17,Dr. Nicholas Henkle,815-467-4315,http://www.csd17.org,Channahon,Will,P-8,24949 S Tryon St,60410 5280
56099030C,Troy CCSD 30C,Dr. Paul Schrik,815-577-6760,http://www.troy30c.org,Plainfield,Will,P-8,5800 Theodore Dr,60586 5269
56099033C,Homer CCSD 33C,Dr. Craig Schoppe,708-226-7600,http://www.homerschools.org,Homer Glen,Will,P-8,15733 S Bell Rd,60491 8404
56099070C,Laraway CCSD 70C,Dr. Joseph Salmieri,815-727-5115,,Joliet,Will,P-8,1715 Rowell Ave,60433 8551
560990810,Union SD 81,Mr. Timothy Baldermann,815-726-5218,http://union81.com,Joliet,Will,P-8,1661 Cherry Hill Rd,60433 8508
560990840,Rockdale SD 84,Dr. Michael Merritt,815-725-5321,http://www.rockdale84.org,Rockdale,Will,P-8,715 Meadow Ave,60436 2405
560990860,Joliet PSD 86,Dr. Theresa R Rouse,815-740-3196,http://www.joliet86.org,Joliet,Will,P-8,420 N Raynor Ave,60435 6065
560990880,Chaney-Monge SD 88,Mr. Andy Siegfried,815-722-6673,http://chaneymonge.us,Crest Hill,Will,K-8,400 Elsie Ave,60403 2573
56099088A,Richland GSD 88A,Dr. Phil Robb,815-744-7288,http://www.d88a.org,Crest Hill,Will,P-8,1919 Caton Farm Rd,60403 1700
560990890,Fairmont SD 89,Dr. Tamela Daniels,815-726-6318,http://fsd89.org,Lockport,Will,P-8,735 Green Garden Pl,60441 4935
560990900,Taft SD 90,Mr. James Calabrese,815-838-0408,http://www.taft90.org,Lockport,Will,P-8,1605 S Washington St,60441 4241
560990910,Lockport SD 91,Dr. Kathleen Wilkey,815-838-0737,http://www.d91.net,Lockport,Will,P-8,808 Adams St,60441 3710
560990920,Will County SD 92,Dr. Kirsten  Frankovich,815-838-8031,http://www.d92.org,Lockport,Will,P-8,708 N State St,60441 2227
560991140,Manhattan SD 114,Dr. Damien P. Aherne,815-478-0191,http://www.manhattan114.org,Manhattan,Will,P-8,15646 W Smith Rd,60442 8413
560991220,New Lenox SD 122,Dr. Lori R Motsch,815-485-2169,http://www.nlsd122.org,New Lenox,Will,P-8,102 S Cedar Rd,60451 1702
56099157C,Frankfort CCSD 157C,Dr. Douglas Wernet,815-469-5922,http://www.fsd157c.org,Frankfort,Will,P-8,10482 Nebraska St,60423 2235
560991590,Mokena SD 159,Mr. Robert Gurney,708-342-4900,http://www.mokena159.org,Mokena,Will,P-8,11244 Willow Crest Ln,60448 1334
560991610,Summit Hill SD 161,Dr. Paul McDermott,815-469-9103,http://www.summithill.org,Frankfort,Will,P-8,20100 S Spruce Dr,60423 7099
56099200U,Beecher CUSD 200U,Dr. Jack C Gaham,708-946-2266,http://beecher200u.org,Beecher,Will,K-12,PO Box 338,60401 0338
56099201U,Crete Monee CUSD 201U,Dr. Kara Coglianese,708-367-8310,http://www.cm201u.org,Crete,Will,P-12,690 W Exchange St,60417 2088
560992020,Plainfield SD 202,Dr. Glenn Wood,815-577-4069,http://psd202.org,Plainfield,Will,P-12,15732 S Howard St,60544 2399
560992030,Elwood CCSD 203,Mr. Tim Page,815-423-5187,http://www.elwoodschool.com,Elwood,Will,P-8,409 N Chicago St,60421 9367
560992040,Joliet Twp HSD 204,Dr. Karla J Guseman,815-727-6970,http://www.jths.org,Joliet,Will,9-12,300 Caterpillar Dr,60436 1047
560992050,Lockport Twp HSD 205,Dr. Robert McBride,815-588-8100,http://www.lths.org,Lockport,Will,9-12,1323 E 7th St,60441 3823
56099207U,Peotone CUSD 207U,Brandon Owens,708-258-0991,http://www.peotoneschools.org,Peotone,Will,P-12,212 W Wilson St,60468 9205
56099209U,Wilmington CUSD 209U,Mr. Kevin Feeney,815-926-1751,https://www.209u.net/,Wilmington,Will,P-12,209U Wildcat Ct,60481 4500
560992100,Lincoln Way CHSD 210,Dr. R Scott Tingley,815-462-2345,http://www.lw210.org,New Lenox,Will,9-12,1801 E Lincoln Hwy,60451 3801
56099255U,Reed Custer CUSD 255U,Mr. Mark Mitchell,815-458-2307,http://www.rc255.net,Braidwood,Will,P-12,255 Comet Dr,60408 2029
56099365U,Valley View CUSD 365U,Dr. Keith Wood,815-886-2700,http://www.vvsd.org,Romeoville,Will,P-12,801 W Normantown Rd,60446 4330
601054280,IDJJ Sch Dist 428,Dr. Tresa D Dunbar,312-814-4464,http://www.idoc.state.il.us,Chicago,Dept Of Corrections,6-12,1112 S Wabash Ave Ste 200,60605 2358
